{"type":"Feature","properties":{"MUN":"NEPTUNE TWP","COUNTY":"MONMOUTH","MUN_LABEL":"Neptune Township","MUN_TYPE":"Township","NAME":"Neptune Township","GNIS_NAME":"Township of Neptune"},"geometry":{"type":"Polygon","coordinates":[[[-74.0318158,40.2246163],[-74.0306321,40.2243655],[-74.0305836,40.2244393],[-74.0305266,40.2245269],[-74.0304978,40.2245681],[-74.0304628,40.2245947],[-74.0304183,40.2246091],[-74.0303262,40.2246234],[-74.0301929,40.2246325],[-74.0300946,40.224637],[-74.0299043,40.2246387],[-74.0297108,40.2246427],[-74.0295491,40.2246372],[-74.0294382,40.224627],[-74.029283,40.2246069],[-74.0291468,40.224587],[-74.029001,40.2245693],[-74.0288268,40.2245419],[-74.0287349,40.2245342],[-74.0286746,40.224534],[-74.0285763,40.2245384],[-74.0284652,40.2245453],[-74.0283732,40.2245571],[-74.0282557,40.2245785],[-74.0281572,40.2246024],[-74.0280397,40.2246238],[-74.0278428,40.224674],[-74.0276108,40.2247387],[-74.0275123,40.2247723],[-74.0274074,40.2248108],[-74.0273182,40.2248591],[-74.027315,40.2248613],[-74.027228,40.2247925],[-74.0271839,40.2247577],[-74.0270469,40.2246494],[-74.0270267,40.2246334],[-74.0268931,40.2245278],[-74.0265333,40.2242434],[-74.0265071,40.2242227],[-74.0261963,40.223977],[-74.0261177,40.2239148],[-74.0261118,40.2239102],[-74.026048,40.2238597],[-74.0259896,40.2238136],[-74.0258885,40.2237336],[-74.0257687,40.2236389],[-74.0257434,40.2236189],[-74.025545,40.2234621],[-74.025545,40.2234564],[-74.0255886,40.2191851],[-74.024965,40.2132553],[-74.0249551,40.2131608],[-74.0188981,40.2132756],[-74.018757,40.2133053],[-74.0138886,40.2143271],[-74.0131635,40.21466],[-74.0129238,40.214737],[-74.0126298,40.2147646],[-74.0125418,40.2147481],[-74.0124533,40.2147332],[-74.0123644,40.2147198],[-74.0122751,40.2147079],[-74.0121855,40.2146976],[-74.0120956,40.2146889],[-74.0120055,40.2146818],[-74.0119152,40.2146762],[-74.0118247,40.2146721],[-74.0117342,40.2146697],[-74.0116436,40.2146688],[-74.011553,40.2146695],[-74.0114624,40.2146718],[-74.0113719,40.2146757],[-74.0112816,40.2146811],[-74.0111915,40.2146881],[-74.0111015,40.2146967],[-74.0110119,40.2147068],[-74.0109226,40.2147185],[-74.0108554,40.2147266],[-74.0107886,40.2147356],[-74.0107221,40.2147456],[-74.010656,40.2147564],[-74.0105902,40.2147681],[-74.0105248,40.2147808],[-74.0104597,40.2147943],[-74.010395,40.2148087],[-74.0103538,40.2148185],[-74.0103111,40.2148293],[-74.0102664,40.2148412],[-74.010219,40.2148544],[-74.0101217,40.214883],[-74.0099533,40.2149343],[-74.0099034,40.2149497],[-74.0098528,40.2149658],[-74.0098012,40.2149827],[-74.0097487,40.2150004],[-74.0096401,40.2150383],[-74.0095248,40.2150804],[-74.009423,40.2151189],[-74.0093103,40.2151625],[-74.009201,40.2152056],[-74.0089269,40.2153144],[-74.0087787,40.2153723],[-74.0087011,40.2154019],[-74.0086281,40.2154292],[-74.0085584,40.2154547],[-74.0084914,40.2154787],[-74.0082886,40.2155494],[-74.008082,40.2156202],[-74.0078712,40.2156912],[-74.0076561,40.2157625],[-74.0074363,40.2158341],[-74.0072113,40.2159063],[-74.0069806,40.2159792],[-74.0067437,40.2160529],[-74.006267,40.2162011],[-74.0060654,40.2162632],[-74.0058567,40.2163263],[-74.0056687,40.2163817],[-74.0055708,40.2164097],[-74.0054762,40.2164363],[-74.0053842,40.2164617],[-74.0052945,40.2164858],[-74.0052067,40.2165088],[-74.0051206,40.2165307],[-74.005036,40.2165517],[-74.0049528,40.2165717],[-74.0048309,40.2166002],[-74.0047161,40.2166264],[-74.0046067,40.2166508],[-74.0045016,40.2166735],[-74.0043997,40.2166948],[-74.0043008,40.2167148],[-74.0042044,40.2167334],[-74.0041102,40.2167509],[-74.0039708,40.2167754],[-74.0038308,40.2167986],[-74.0036903,40.2168205],[-74.0035493,40.216841],[-74.0034081,40.2168601],[-74.0032666,40.2168779],[-74.0031249,40.2168942],[-74.0029832,40.2169092],[-74.0028412,40.2169228],[-74.0026989,40.216935],[-74.0025562,40.2169458],[-74.0024132,40.2169553],[-74.0022702,40.2169633],[-74.002127,40.21697],[-74.001984,40.2169753],[-74.001841,40.2169792],[-74.001698,40.2169816],[-74.0015548,40.2169827],[-74.0012732,40.2169739],[-74.0011985,40.2169653],[-74.0010988,40.216946],[-74.0010795,40.2169422],[-74.0010698,40.21694],[-74.0009845,40.2169209],[-74.0009038,40.2169028],[-74.000717,40.2168608],[-74.0004965,40.2168063],[-74.0004447,40.2167934],[-74.0004098,40.216784],[-74.0002281,40.2167352],[-73.9994869,40.2165358],[-73.9994843,40.2165202],[-73.9994604,40.216468],[-73.9994596,40.2164103],[-73.9994696,40.216375],[-73.9995062,40.2163435],[-73.9995917,40.2162824],[-73.999648,40.2162157],[-73.9996922,40.2161414],[-73.9997318,40.2160466],[-73.999764,40.2159612],[-73.9998252,40.2158888],[-73.999862,40.2158425],[-73.9998793,40.2158016],[-73.9998991,40.2157403],[-73.9999549,40.2155823],[-74.0000015,40.2155083],[-74.0001614,40.2152607],[-74.0003567,40.2148524],[-74.0004608,40.214573],[-74.0004845,40.214471],[-74.0004755,40.2143523],[-74.0004591,40.2142543],[-74.0004521,40.2141977],[-74.0004671,40.2141582],[-74.0005094,40.2140944],[-74.0007926,40.213668],[-74.0010044,40.2132677],[-74.0012588,40.2127601],[-74.0013151,40.2126125],[-74.001338,40.212509],[-74.0013362,40.2124186],[-74.0013074,40.2123337],[-74.0012685,40.2122657],[-74.0012664,40.212228],[-74.0012789,40.2121904],[-74.0013112,40.2121472],[-74.0014102,40.2120402],[-74.0015523,40.2117696],[-74.0018552,40.2111709],[-74.0020286,40.2108147],[-74.0021016,40.2105757],[-74.0020972,40.2105004],[-74.0020634,40.2104249],[-74.0020342,40.2103814],[-74.0020271,40.2103418],[-74.0020325,40.2102835],[-74.002055,40.2102346],[-74.0021221,40.2101294],[-74.0021908,40.2099686],[-74.002218,40.2099424],[-74.0022477,40.2099199],[-74.0022775,40.2098786],[-74.0024145,40.2096135],[-74.0027895,40.2089116],[-74.0029501,40.2086174],[-74.0029604,40.2085497],[-74.0029561,40.2084668],[-74.0029467,40.2084083],[-74.0029078,40.2083554],[-74.0028711,40.2083289],[-74.0028418,40.2082986],[-74.0028372,40.2082666],[-74.0028375,40.2082232],[-74.0028488,40.2081847],[-74.0028587,40.2081753],[-74.002919,40.2080859],[-74.0035032,40.2082088],[-74.0038461,40.2082809],[-74.0038524,40.2082822],[-74.0041394,40.2083432],[-74.0042384,40.2083643],[-74.0045244,40.2084251],[-74.0045654,40.2084338],[-74.0046456,40.2084508],[-74.0048783,40.2085003],[-74.0048784,40.2085003],[-74.004897,40.2085024],[-74.0052186,40.2085518],[-74.0056424,40.2085905],[-74.0059074,40.2085849],[-74.0061501,40.2084861],[-74.0064524,40.2083379],[-74.0065057,40.2083046],[-74.0067603,40.2081456],[-74.0070544,40.207904],[-74.0073645,40.2076897],[-74.007766,40.2074372],[-74.0081676,40.2072065],[-74.008561,40.2070528],[-74.0085932,40.2070431],[-74.0085934,40.207043],[-74.0085935,40.207043],[-74.0089775,40.2069265],[-74.0093057,40.2068468],[-74.0097229,40.2068155],[-74.0101468,40.2068614],[-74.010628,40.206935],[-74.0109192,40.2069869],[-74.0112354,40.2070584],[-74.0114768,40.2071087],[-74.0114793,40.2071092],[-74.0114853,40.2071104],[-74.011633,40.2071412],[-74.0116218,40.207172],[-74.0116048,40.2072185],[-74.0115789,40.2072895],[-74.0117592,40.2073297],[-74.0117613,40.2073301],[-74.0119048,40.2073621],[-74.0119379,40.2073701],[-74.0119399,40.2073706],[-74.0120359,40.2073938],[-74.0121134,40.2074226],[-74.0122196,40.2074621],[-74.012282,40.2074853],[-74.0123505,40.2075107],[-74.0124512,40.2075482],[-74.0126618,40.2076265],[-74.0129751,40.2077429],[-74.0134211,40.207894],[-74.0136967,40.2080015],[-74.0137958,40.2080407],[-74.0138282,40.2080476],[-74.0141388,40.2081138],[-74.0142199,40.2081311],[-74.014454,40.2081809],[-74.0145306,40.2081972],[-74.014592,40.2082103],[-74.0149986,40.2082969],[-74.015102,40.208319],[-74.01524,40.2083484],[-74.0158999,40.2084889],[-74.0161321,40.2085384],[-74.0163788,40.2085909],[-74.0169004,40.208702],[-74.0170199,40.2087275],[-74.0170275,40.2087291],[-74.0172244,40.208771],[-74.0177586,40.2072956],[-74.0185049,40.2052299],[-74.0192362,40.2032056],[-74.0196779,40.2019829],[-74.0199446,40.2020462],[-74.0199469,40.2020467],[-74.0199852,40.2020558],[-74.0219272,40.202517],[-74.0219421,40.2025206],[-74.0248367,40.2032177],[-74.0249141,40.2032364],[-74.0249469,40.2032443],[-74.0251764,40.2032984],[-74.0251781,40.2032988],[-74.02535,40.2033393],[-74.0255189,40.2033791],[-74.0256898,40.2034194],[-74.0258634,40.2034603],[-74.0260363,40.203501],[-74.0262141,40.203543],[-74.0263899,40.2035844],[-74.0266711,40.2036507],[-74.0269262,40.2037108],[-74.0271339,40.2037597],[-74.0275554,40.2038591],[-74.0278831,40.2039363],[-74.0280557,40.203977],[-74.0283987,40.2040578],[-74.028571,40.2040984],[-74.0287448,40.2041394],[-74.0289142,40.2041793],[-74.0290863,40.2042199],[-74.0292567,40.20426],[-74.0294265,40.2043],[-74.0296013,40.2043412],[-74.0297765,40.2043834],[-74.0301196,40.2044665],[-74.0303655,40.204526],[-74.0304628,40.2045495],[-74.0306344,40.204591],[-74.0308917,40.2046533],[-74.0311491,40.2047155],[-74.0314881,40.2047976],[-74.0316579,40.2048386],[-74.0318277,40.2048797],[-74.0319975,40.2049208],[-74.0321879,40.2049669],[-74.0323761,40.2050124],[-74.0325632,40.2050576],[-74.0328074,40.2051167],[-74.0330169,40.205185],[-74.0330248,40.2051876],[-74.0330682,40.2051971],[-74.0333608,40.2052611],[-74.0335118,40.2052942],[-74.0337856,40.2053542],[-74.033966,40.2053937],[-74.0339662,40.2053937],[-74.0342819,40.2054629],[-74.0344172,40.2054925],[-74.0344338,40.2054961],[-74.0350863,40.2056488],[-74.037085,40.2061165],[-74.0372719,40.2061304],[-74.0373571,40.206151],[-74.0373746,40.2061552],[-74.0379526,40.206295],[-74.0379704,40.2062993],[-74.0380244,40.2063124],[-74.0380391,40.2063159],[-74.0381062,40.2063322],[-74.0384183,40.2064077],[-74.0387868,40.2064968],[-74.0389578,40.2065382],[-74.039899,40.2067658],[-74.0399928,40.2067885],[-74.0400313,40.2067978],[-74.041745,40.2072123],[-74.0418949,40.2072486],[-74.0421358,40.2073069],[-74.0430376,40.207184],[-74.0435934,40.2071089],[-74.0444941,40.2069838],[-74.0449898,40.2069172],[-74.0454787,40.2068519],[-74.0465379,40.2067059],[-74.0472685,40.2066049],[-74.0485863,40.2064386],[-74.0495571,40.2062923],[-74.0500982,40.2062336],[-74.0504559,40.206191],[-74.050475,40.2061894],[-74.05077,40.2061647],[-74.0512318,40.2061308],[-74.0516281,40.2061252],[-74.0518103,40.2061303],[-74.0518706,40.206132],[-74.0518844,40.2061113],[-74.0518971,40.2060904],[-74.0519089,40.2060694],[-74.0519197,40.2060481],[-74.0519294,40.2060267],[-74.0519382,40.206005],[-74.051946,40.2059832],[-74.0519527,40.2059612],[-74.0519603,40.2059312],[-74.0519661,40.2059009],[-74.0519699,40.2058708],[-74.0519719,40.205841],[-74.0519724,40.2058126],[-74.0519719,40.2057898],[-74.0519697,40.2057668],[-74.0519658,40.2057463],[-74.0519615,40.2057317],[-74.0519554,40.2057167],[-74.0519476,40.2057012],[-74.0519379,40.2056849],[-74.0519292,40.2056719],[-74.051919,40.2056577],[-74.0518748,40.2056007],[-74.0518568,40.2055756],[-74.0518353,40.2055432],[-74.0517646,40.2054347],[-74.0517405,40.2053996],[-74.051718,40.2053687],[-74.0516924,40.2053359],[-74.0516671,40.2053061],[-74.0516414,40.2052787],[-74.0516152,40.2052535],[-74.0516021,40.2052421],[-74.0515866,40.20523],[-74.0515322,40.2051909],[-74.0515124,40.2051759],[-74.051494,40.2051603],[-74.0514791,40.2051454],[-74.0514669,40.2051313],[-74.0514551,40.205116],[-74.0514438,40.2050995],[-74.0514327,40.2050816],[-74.051422,40.2050628],[-74.0514111,40.2050418],[-74.0513998,40.2050184],[-74.051385,40.2049864],[-74.0513629,40.2049412],[-74.0513577,40.2049288],[-74.051354,40.2049177],[-74.0513517,40.2049075],[-74.0513505,40.2048979],[-74.0513504,40.2048895],[-74.0513512,40.2048805],[-74.0513529,40.2048705],[-74.0513556,40.2048592],[-74.0513677,40.2048187],[-74.0513696,40.2048125],[-74.0513731,40.2048034],[-74.0513775,40.2047937],[-74.0513823,40.2047847],[-74.0513941,40.2047651],[-74.0514271,40.2047152],[-74.0514354,40.2047006],[-74.0514417,40.2046875],[-74.0514447,40.2046798],[-74.051447,40.2046725],[-74.0514487,40.2046653],[-74.0514497,40.2046584],[-74.0514501,40.2046516],[-74.0514499,40.204645],[-74.051449,40.2046385],[-74.0514474,40.2046321],[-74.0514433,40.2046196],[-74.051439,40.204609],[-74.0514343,40.2046],[-74.0514293,40.2045924],[-74.0514254,40.2045879],[-74.0514192,40.2045828],[-74.0514117,40.2045783],[-74.0514028,40.2045744],[-74.0513923,40.204571],[-74.0513818,40.2045684],[-74.0513695,40.204566],[-74.0513204,40.2045588],[-74.0513001,40.204555],[-74.0512898,40.2045525],[-74.0512807,40.2045496],[-74.0512725,40.2045465],[-74.0512652,40.204543],[-74.0512512,40.2045351],[-74.051239,40.2045277],[-74.0512282,40.2045204],[-74.0512187,40.2045132],[-74.0512096,40.2045048],[-74.0512011,40.2044943],[-74.0511938,40.2044836],[-74.0511771,40.2044565],[-74.0511672,40.2044431],[-74.0511583,40.2044339],[-74.0511509,40.2044277],[-74.0511428,40.2044216],[-74.0511339,40.2044156],[-74.0511241,40.2044095],[-74.0511019,40.2043975],[-74.0510732,40.2043838],[-74.0510219,40.2043604],[-74.0509996,40.2043502],[-74.0509758,40.2043403],[-74.0509504,40.2043306],[-74.050923,40.2043211],[-74.050895,40.204312],[-74.0508637,40.2043026],[-74.0507406,40.2042678],[-74.0506887,40.2042522],[-74.0506608,40.204243],[-74.0506352,40.204234],[-74.0506113,40.2042248],[-74.0505889,40.2042154],[-74.0505582,40.2042018],[-74.0505283,40.204188],[-74.0504991,40.204174],[-74.0504707,40.2041599],[-74.0503598,40.204104],[-74.0502946,40.2040704],[-74.050234,40.2040379],[-74.0501802,40.2040076],[-74.0501286,40.2039766],[-74.0501046,40.2039615],[-74.0500818,40.2039465],[-74.0500601,40.2039316],[-74.0500394,40.2039169],[-74.0500197,40.2039021],[-74.050001,40.2038875],[-74.0499825,40.2038722],[-74.049965,40.2038569],[-74.0499486,40.2038417],[-74.0499332,40.2038264],[-74.0499188,40.2038112],[-74.0499054,40.2037959],[-74.0498929,40.2037805],[-74.0498815,40.2037652],[-74.049871,40.2037498],[-74.0498615,40.2037343],[-74.049853,40.2037188],[-74.0498454,40.2037033],[-74.0498388,40.2036877],[-74.0498332,40.203672],[-74.0498286,40.2036562],[-74.0498249,40.2036404],[-74.0498237,40.2036308],[-74.0498239,40.2036196],[-74.0498252,40.2036075],[-74.0498302,40.2035737],[-74.0498309,40.2035636],[-74.0498307,40.203555],[-74.0498291,40.2035455],[-74.0498262,40.2035372],[-74.0498217,40.20353],[-74.0498156,40.2035239],[-74.0498056,40.2035169],[-74.0497857,40.2035059],[-74.0497602,40.203492],[-74.0497341,40.2034792],[-74.0497073,40.2034673],[-74.0496798,40.2034564],[-74.0496518,40.2034466],[-74.0496231,40.2034377],[-74.0495937,40.2034298],[-74.0495637,40.2034229],[-74.0495331,40.203417],[-74.0495018,40.2034121],[-74.0494699,40.2034082],[-74.0494373,40.2034053],[-74.0494041,40.2034034],[-74.0493703,40.2034024],[-74.0493358,40.2034025],[-74.0493007,40.2034036],[-74.0492757,40.2034049],[-74.0492037,40.2034087],[-74.0491213,40.2034043],[-74.0490605,40.2033917],[-74.0489926,40.2033736],[-74.0489033,40.2033361],[-74.0488551,40.2033126],[-74.0488033,40.2032835],[-74.0487641,40.2032559],[-74.0487337,40.2032393],[-74.0486837,40.2032185],[-74.0486194,40.2031922],[-74.0485569,40.203159],[-74.0484784,40.2031161],[-74.0483963,40.2030773],[-74.048282,40.2030233],[-74.0481963,40.2029873],[-74.0481659,40.2029707],[-74.048116,40.2029403],[-74.0480536,40.2028947],[-74.0480055,40.2028478],[-74.0479825,40.202812],[-74.0479451,40.202772],[-74.0478666,40.202725],[-74.0477239,40.2026462],[-74.0476131,40.2026032],[-74.047456,40.2025243],[-74.0473739,40.2024855],[-74.0473203,40.2024523],[-74.0472633,40.2024082],[-74.0472134,40.2023709],[-74.0471723,40.2023501],[-74.0471045,40.2023224],[-74.0470705,40.202314],[-74.0470329,40.2023139],[-74.046972,40.2023164],[-74.0468932,40.2023064],[-74.0468378,40.2022925],[-74.0467502,40.2022619],[-74.0466484,40.2022203],[-74.0465377,40.2021732],[-74.0464537,40.2021358],[-74.046343,40.20209],[-74.0462855,40.202053],[-74.0462656,40.2020325],[-74.0462369,40.2019836],[-74.0462269,40.2019624],[-74.0462038,40.2019367],[-74.0461779,40.2018908],[-74.0461462,40.201845],[-74.0461233,40.201797],[-74.0460975,40.2017456],[-74.0460744,40.2017143],[-74.0460253,40.2016729],[-74.0459747,40.2016237],[-74.0459314,40.2015722],[-74.0458287,40.2014993],[-74.0457621,40.2014634],[-74.0457249,40.2014348],[-74.0456708,40.201397],[-74.045622,40.201376],[-74.0455823,40.2013592],[-74.0455226,40.2013409],[-74.0454864,40.2013338],[-74.0454721,40.2013328],[-74.0454257,40.2013356],[-74.0454034,40.201334],[-74.0453899,40.201331],[-74.0453629,40.2013146],[-74.0453369,40.2013011],[-74.0453138,40.2012914],[-74.0452993,40.2012832],[-74.0452945,40.2012787],[-74.0452917,40.2012727],[-74.0452811,40.2012412],[-74.0452706,40.2012054],[-74.0452663,40.2011857],[-74.0452637,40.2011634],[-74.0452602,40.2011474],[-74.0452548,40.2011391],[-74.0452467,40.2011335],[-74.0452405,40.2011293],[-74.0452314,40.2011272],[-74.0452214,40.201125],[-74.0452078,40.2011257],[-74.0452006,40.2011243],[-74.0451898,40.2011187],[-74.0451834,40.2011138],[-74.0451799,40.2011089],[-74.0451663,40.201097],[-74.0451537,40.2010914],[-74.0451365,40.2010872],[-74.0451109,40.2010847],[-74.0450746,40.2010839],[-74.045045,40.2010823],[-74.0450259,40.2010778],[-74.0450078,40.2010689],[-74.0449888,40.2010549],[-74.0449688,40.2010365],[-74.0449564,40.2010196],[-74.0449313,40.2009876],[-74.0449214,40.2009762],[-74.0449076,40.2009674],[-74.0448933,40.2009592],[-74.0448752,40.2009526],[-74.0448575,40.2009485],[-74.0448375,40.2009432],[-74.0448222,40.2009399],[-74.044809,40.2009358],[-74.0447834,40.2009276],[-74.0447676,40.2009239],[-74.0447355,40.2009229],[-74.0447051,40.2009228],[-74.0446706,40.2009231],[-74.0446437,40.2009248],[-74.0446233,40.200926],[-74.0446157,40.2009283],[-74.0446074,40.2009341],[-74.0446021,40.2009421],[-74.0445974,40.2009506],[-74.0445932,40.2009658],[-74.0445902,40.2009797],[-74.0445866,40.2009918],[-74.0445836,40.2009994],[-74.0445816,40.2010035],[-74.0445718,40.2010095],[-74.044558,40.2010125],[-74.0445345,40.2010124],[-74.0445051,40.2010092],[-74.0444776,40.2010016],[-74.0444639,40.200994],[-74.0444386,40.2009668],[-74.0444152,40.2009351],[-74.0443919,40.2008959],[-74.0443842,40.2008718],[-74.0443745,40.2008552],[-74.044353,40.2008431],[-74.0443295,40.2008369],[-74.0442922,40.2008383],[-74.0442627,40.2008442],[-74.0442411,40.2008501],[-74.0442175,40.2008516],[-74.044196,40.2008469],[-74.0441803,40.2008409],[-74.0441608,40.2008227],[-74.0441354,40.2007985],[-74.044112,40.2007789],[-74.0440963,40.2007773],[-74.0440767,40.2007787],[-74.0440589,40.2007877],[-74.0440392,40.2008057],[-74.0440135,40.2008267],[-74.0439977,40.2008356],[-74.0439781,40.2008371],[-74.0439585,40.2008355],[-74.0439291,40.2008293],[-74.0439134,40.2008187],[-74.0439057,40.2007976],[-74.0438941,40.200775],[-74.0438884,40.2007479],[-74.0438837,40.200717],[-74.0438739,40.2007034],[-74.0438555,40.2006838],[-74.0438339,40.2006731],[-74.0438163,40.2006671],[-74.0437937,40.2006662],[-74.0437682,40.2006699],[-74.0437456,40.2006758],[-74.0437219,40.2006855],[-74.0436973,40.200699],[-74.0436697,40.2007154],[-74.0435927,40.2007601],[-74.0434719,40.2008131],[-74.0433768,40.2008273],[-74.0432438,40.200817],[-74.0431172,40.2007922],[-74.0429591,40.2007625],[-74.042917,40.2007629],[-74.0429048,40.2007731],[-74.042891,40.2007888],[-74.0428798,40.2008073],[-74.042873,40.200821],[-74.0428662,40.2008342],[-74.0428631,40.2008484],[-74.0428579,40.2008642],[-74.0428526,40.2008779],[-74.0428416,40.2008924],[-74.0428275,40.2009018],[-74.0428211,40.2009005],[-74.0427989,40.2009057],[-74.0427746,40.2009149],[-74.0427571,40.2009233],[-74.0427406,40.2009321],[-74.0427221,40.2009434],[-74.0427025,40.2009538],[-74.0426792,40.2009634],[-74.0426606,40.200971],[-74.042641,40.2009782],[-74.0426209,40.2009854],[-74.0425998,40.2009925],[-74.0425738,40.2010005],[-74.0425469,40.2010064],[-74.042521,40.2010079],[-74.0424983,40.2010082],[-74.0424756,40.2010105],[-74.0424545,40.2010149],[-74.0424281,40.2010156],[-74.0424086,40.2010138],[-74.0423886,40.2010109],[-74.0423722,40.2010052],[-74.0423528,40.2009929],[-74.0423334,40.2009787],[-74.0423166,40.2009673],[-74.0422904,40.200953],[-74.0422746,40.200946],[-74.0422583,40.2009403],[-74.042232,40.2009312],[-74.0422104,40.2009255],[-74.0421883,40.2009197],[-74.0421813,40.200918],[-74.0421662,40.2009143],[-74.0421382,40.2009101],[-74.0421119,40.2009051],[-74.0420913,40.2009022],[-74.0420692,40.2009013],[-74.042047,40.2009012],[-74.0420254,40.2009019],[-74.0420037,40.2009042],[-74.0419764,40.2009093],[-74.0419763,40.2009093],[-74.0419451,40.2009164],[-74.0419139,40.2009244],[-74.0418805,40.2009351],[-74.0418514,40.2009471],[-74.041827,40.2009596],[-74.0418197,40.2009631],[-74.0417995,40.2009728],[-74.0417725,40.2009856],[-74.0417576,40.200994],[-74.0417306,40.2010072],[-74.0417137,40.2010136],[-74.0416962,40.2010184],[-74.0416703,40.2010243],[-74.0416465,40.2010315],[-74.0416451,40.201032],[-74.0416227,40.2010415],[-74.0415983,40.2010527],[-74.0415776,40.2010607],[-74.0415607,40.2010658],[-74.0415401,40.201069],[-74.0415285,40.2010681],[-74.0415085,40.2010636],[-74.0414827,40.2010562],[-74.0414622,40.2010484],[-74.0414444,40.2010369],[-74.041426,40.2010227],[-74.0414029,40.2010044],[-74.0413767,40.2009909],[-74.0413483,40.2009831],[-74.0413298,40.2009801],[-74.0413108,40.2009768],[-74.0412797,40.2009726],[-74.0412492,40.2009688],[-74.0412181,40.200961],[-74.0411844,40.2009523],[-74.041167,40.2009478],[-74.0411486,40.2009432],[-74.0411212,40.2009358],[-74.0410992,40.2009264],[-74.0410761,40.2009129],[-74.041053,40.200897],[-74.0410315,40.2008807],[-74.0410168,40.2008701],[-74.0410021,40.2008587],[-74.040989,40.2008469],[-74.0409786,40.2008351],[-74.0407804,40.2006118],[-74.0407818,40.2005512],[-74.0407289,40.2000972],[-74.0406394,40.1998552],[-74.0405208,40.1997185],[-74.0404562,40.1996607],[-74.0403875,40.1995991],[-74.040349,40.1995543],[-74.0403233,40.1995369],[-74.040262,40.1995267],[-74.0401668,40.1995099],[-74.040133,40.1995039],[-74.0400105,40.1994663],[-74.0399396,40.1994313],[-74.0398174,40.1993256],[-74.0398015,40.1993119],[-74.0397372,40.1992745],[-74.0396999,40.1992608],[-74.0396212,40.1992319],[-74.0394988,40.199172],[-74.0394345,40.1991296],[-74.0393931,40.1990452],[-74.0393707,40.1990179],[-74.0393255,40.1990053],[-74.0392738,40.1990051],[-74.0392449,40.1989926],[-74.0392224,40.1989678],[-74.0392129,40.1989355],[-74.039239,40.198896],[-74.039304,40.1988368],[-74.0393786,40.1988049],[-74.039424,40.1987803],[-74.0394436,40.1987432],[-74.0394503,40.1987061],[-74.0394376,40.1986739],[-74.0393861,40.1986464],[-74.0393443,40.1986215],[-74.0393348,40.1985892],[-74.0393351,40.1985521],[-74.0393775,40.1984928],[-74.039402,40.1984508],[-74.0394187,40.1983567],[-74.0394646,40.1982702],[-74.0395394,40.1981912],[-74.0395948,40.1981171],[-74.0396538,40.197996],[-74.0397548,40.1978651],[-74.039872,40.1977269],[-74.0399499,40.1976677],[-74.0400991,40.1975816],[-74.0402934,40.1975056],[-74.0405879,40.1974325],[-74.0407561,40.1973911],[-74.0408207,40.1973888],[-74.0408692,40.197394],[-74.0408949,40.1974114],[-74.0409401,40.1974116],[-74.0409984,40.1973945],[-74.0410531,40.1973619],[-74.0412188,40.1972765],[-74.0413289,40.1972422],[-74.0414616,40.1971957],[-74.0415288,40.1971878],[-74.0415867,40.1971737],[-74.0416334,40.1971596],[-74.0416745,40.197144],[-74.0417045,40.197127],[-74.0417214,40.197097],[-74.0417216,40.1970943],[-74.0416684,40.1969707],[-74.0416404,40.1969551],[-74.0415863,40.1969506],[-74.0415322,40.1969519],[-74.0415005,40.1969646],[-74.0414425,40.1969872],[-74.0413884,40.1969985],[-74.0413566,40.1970153],[-74.0413207,40.1970118],[-74.0412107,40.1970386],[-74.0410652,40.1970703],[-74.0408809,40.1970918],[-74.0407807,40.1970964],[-74.0406836,40.1971307],[-74.0405897,40.1971699],[-74.0405379,40.1971747],[-74.0404959,40.1971745],[-74.0404442,40.1971867],[-74.0403761,40.1972162],[-74.0402919,40.1972555],[-74.0401981,40.1972774],[-74.0401431,40.1972796],[-74.0401011,40.1972819],[-74.0400623,40.1972942],[-74.0399326,40.1974177],[-74.0397527,40.1974601],[-74.039604,40.1974744],[-74.0394762,40.1975073],[-74.0393305,40.1975476],[-74.0390844,40.197647],[-74.03889,40.1977255],[-74.0387363,40.1977657],[-74.0385318,40.1977946],[-74.0383604,40.1978199],[-74.0380679,40.197846],[-74.0380382,40.1978298],[-74.0378522,40.1978662],[-74.0377267,40.1979091],[-74.0374744,40.1979601],[-74.0373355,40.1979595],[-74.037206,40.197959],[-74.0371708,40.1979589],[-74.0369413,40.1979753],[-74.0367926,40.1979945],[-74.0366665,40.1980163],[-74.0364706,40.198026],[-74.0363886,40.19803],[-74.0363075,40.1980232],[-74.0360787,40.198004],[-74.035885,40.197981],[-74.0358742,40.1979784],[-74.0357367,40.1979457],[-74.0356755,40.1979083],[-74.0356242,40.197861],[-74.0355598,40.1978211],[-74.0354792,40.1978035],[-74.0354018,40.1977932],[-74.0353406,40.1977682],[-74.0351684,40.1976685],[-74.0350431,40.1975664],[-74.0349214,40.1974247],[-74.0348604,40.197365],[-74.0348427,40.1973469],[-74.0347706,40.197273],[-74.0347195,40.1971861],[-74.0346674,40.1970469],[-74.0346155,40.1969596],[-74.0345403,40.196878],[-74.0344774,40.1968304],[-74.0344435,40.1968046],[-74.0343271,40.1967328],[-74.0341697,40.1966492],[-74.0340424,40.1965973],[-74.0340097,40.1965868],[-74.0339582,40.1965704],[-74.0339044,40.196537],[-74.0338355,40.1964803],[-74.0337709,40.196432],[-74.0337127,40.1963985],[-74.033661,40.1963784],[-74.033592,40.1963433],[-74.0335133,40.1962998],[-74.0332009,40.1961061],[-74.033134,40.1960826],[-74.0330799,40.1960741],[-74.0330432,40.1960578],[-74.0330044,40.1960406],[-74.0328503,40.195962],[-74.0327895,40.1959214],[-74.0325134,40.1957084],[-74.0323674,40.1955419],[-74.0322647,40.1953856],[-74.0322168,40.195333],[-74.0322131,40.1953289],[-74.03217,40.1952989],[-74.0321097,40.1952622],[-74.0320931,40.1952493],[-74.0320279,40.1951988],[-74.0319591,40.1951354],[-74.0319291,40.1950922],[-74.0319128,40.1950503],[-74.0318924,40.1949361],[-74.0318711,40.1948763],[-74.0318346,40.1948462],[-74.0317959,40.1948112],[-74.0317789,40.1947614],[-74.0317729,40.1946884],[-74.0317623,40.1946585],[-74.0317589,40.194655],[-74.0317322,40.1946268],[-74.0316914,40.1945918],[-74.031657,40.1945568],[-74.0316357,40.1945086],[-74.0316339,40.1944989],[-74.0316273,40.1944638],[-74.0316269,40.1943725],[-74.0316269,40.1943653],[-74.0316272,40.1943294],[-74.0316184,40.1943133],[-74.0316037,40.1942862],[-74.0315457,40.1942262],[-74.0314962,40.1941795],[-74.0314811,40.1941795],[-74.0314593,40.1941927],[-74.0314203,40.1942124],[-74.0313901,40.194199],[-74.0313557,40.1941607],[-74.0313366,40.1941042],[-74.031339,40.1940677],[-74.0313527,40.1940216],[-74.0315267,40.1938362],[-74.0313613,40.1936696],[-74.0312845,40.1935903],[-74.0312355,40.1935606],[-74.0311444,40.1935206],[-74.0310047,40.1934686],[-74.0308498,40.1934002],[-74.0304309,40.1931766],[-74.0301701,40.193019],[-74.0300364,40.1929601],[-74.0299302,40.1928989],[-74.0297642,40.1927938],[-74.0297149,40.1927626],[-74.0296694,40.1927367],[-74.029642,40.1927366],[-74.0295963,40.192741],[-74.0295503,40.1927736],[-74.0295158,40.1927914],[-74.0294831,40.1928083],[-74.0293875,40.1928283],[-74.0293733,40.1928312],[-74.0292804,40.192825],[-74.0291223,40.1927847],[-74.0288426,40.1927088],[-74.028633,40.1926238],[-74.0284447,40.1925343],[-74.0283537,40.1924825],[-74.0276085,40.1923149],[-74.0275169,40.1922675],[-74.026949,40.1921185],[-74.0267872,40.1920209],[-74.0267815,40.1920197],[-74.0267743,40.1920169],[-74.0267606,40.1920118],[-74.026756,40.19201],[-74.0267242,40.1919942],[-74.0266728,40.1919721],[-74.0266548,40.1919651],[-74.0266206,40.1919436],[-74.0266052,40.1919373],[-74.0265945,40.1919329],[-74.0265667,40.1919196],[-74.0265357,40.1919044],[-74.0264966,40.1918841],[-74.0264582,40.1918639],[-74.0264562,40.1918627],[-74.026451,40.1918595],[-74.0264319,40.1918478],[-74.0264098,40.1918365],[-74.0263755,40.1918225],[-74.0263519,40.1918136],[-74.0263306,40.1918073],[-74.0263094,40.191799],[-74.0262933,40.1917913],[-74.0262882,40.1917889],[-74.0262613,40.1917763],[-74.026227,40.1917623],[-74.0262124,40.1917575],[-74.0261788,40.1917464],[-74.0261453,40.1917344],[-74.0261331,40.1917308],[-74.0261192,40.1917267],[-74.0261045,40.1917261],[-74.0260824,40.1917191],[-74.0260448,40.1917064],[-74.0260167,40.1916992],[-74.025993,40.1916941],[-74.0259766,40.191694],[-74.0259677,40.1916896],[-74.0259657,40.1916889],[-74.0259432,40.1916813],[-74.025904,40.1916668],[-74.0258779,40.1916528],[-74.0258419,40.191642],[-74.0258199,40.1916338],[-74.0258048,40.1916281],[-74.0257979,40.1916255],[-74.025775,40.1916179],[-74.0257415,40.1916109],[-74.0257129,40.1916001],[-74.0256786,40.1915899],[-74.0256447,40.1915789],[-74.0256403,40.1915773],[-74.025617,40.1915693],[-74.0255974,40.1915617],[-74.025577,40.1915547],[-74.0255607,40.1915453],[-74.0255329,40.1915332],[-74.0255092,40.1915225],[-74.025497,40.1915193],[-74.0254815,40.1915161],[-74.0254794,40.1915155],[-74.0254578,40.1915097],[-74.025443,40.1915071],[-74.0254308,40.1915002],[-74.0254137,40.1914901],[-74.0253966,40.1914831],[-74.0253729,40.1914767],[-74.0253516,40.1914735],[-74.0253246,40.1914715],[-74.025311,40.1914675],[-74.0252956,40.191463],[-74.0252482,40.1914534],[-74.025227,40.1914489],[-74.0252082,40.1914426],[-74.0251845,40.1914343],[-74.025169,40.1914255],[-74.0251437,40.1914154],[-74.0251233,40.1914021],[-74.0250907,40.1913831],[-74.025076,40.1913749],[-74.0250573,40.1913604],[-74.0250402,40.1913472],[-74.0250199,40.191327],[-74.025011,40.191315],[-74.0250052,40.1913072],[-74.0249946,40.191299],[-74.0249873,40.1912871],[-74.0249833,40.1912764],[-74.0249809,40.1912613],[-74.024981,40.1912532],[-74.0249877,40.1912337],[-74.0249894,40.1912212],[-74.0249863,40.1912011],[-74.0249815,40.1911873],[-74.0249742,40.1911766],[-74.0249717,40.1911582],[-74.0249874,40.1911193],[-74.0250015,40.1910801],[-74.0250141,40.1910405],[-74.025025,40.1910006],[-74.0250284,40.1909935],[-74.0250424,40.1909737],[-74.0250475,40.1909518],[-74.0250502,40.1909299],[-74.0250466,40.1909128],[-74.0250461,40.1908965],[-74.025046,40.1908947],[-74.0250792,40.1908022],[-74.0248594,40.1906563],[-74.0244728,40.1904951],[-74.0243134,40.1903337],[-74.024137,40.1902704],[-74.0241365,40.1902703],[-74.0242393,40.1899817],[-74.0240309,40.1899417],[-74.0257055,40.1853338],[-74.0257285,40.1853412],[-74.0257308,40.1853419],[-74.0257935,40.1853601],[-74.0258585,40.1853889],[-74.0259031,40.1853991],[-74.0259224,40.1853991],[-74.0259385,40.1853992],[-74.025974,40.1853947],[-74.0260466,40.1853854],[-74.0261567,40.1853601],[-74.026223,40.1853329],[-74.0262728,40.1853253],[-74.0264146,40.1852887],[-74.0265267,40.1852392],[-74.0266183,40.1851796],[-74.0267197,40.1851111],[-74.0267886,40.1850646],[-74.0270661,40.1847901],[-74.0270978,40.1847623],[-74.0277167,40.1842189],[-74.0278535,40.1840938],[-74.0278813,40.1841139],[-74.027898,40.1841226],[-74.0279222,40.1841227],[-74.0279521,40.1841071],[-74.0285753,40.1835219],[-74.0289651,40.183165],[-74.0291457,40.1830236],[-74.0293216,40.1829087],[-74.0294496,40.1828385],[-74.0295504,40.1828075],[-74.0296361,40.182795],[-74.0297088,40.1827938],[-74.0297943,40.1828156],[-74.0298258,40.1828257],[-74.0298815,40.1828645],[-74.029974,40.182942],[-74.0301111,40.1830468],[-74.0301593,40.1830727],[-74.0302206,40.183093],[-74.0302968,40.1831218],[-74.0303636,40.1831578],[-74.0305044,40.1832612],[-74.0306028,40.1833442],[-74.0306534,40.1833839],[-74.0307285,40.1834307],[-74.0307693,40.1834594],[-74.0308116,40.1835395],[-74.030852,40.1836225],[-74.0308666,40.1836654],[-74.0308664,40.1836954],[-74.0308606,40.183724],[-74.0308169,40.1838523],[-74.0307827,40.1839522],[-74.0307772,40.1840112],[-74.0307746,40.1840393],[-74.0307668,40.1840935],[-74.0307498,40.1841234],[-74.0307399,40.1841362],[-74.0307179,40.1841647],[-74.0306953,40.1842032],[-74.0306724,40.1842831],[-74.030671,40.1842887],[-74.0306532,40.1843601],[-74.0306298,40.1845171],[-74.0306253,40.1845303],[-74.0305348,40.1847967],[-74.0304208,40.1851783],[-74.0304147,40.1851989],[-74.030403,40.1852675],[-74.0303943,40.1854545],[-74.0303787,40.1855601],[-74.0303578,40.18562],[-74.0303221,40.1856585],[-74.0302566,40.185711],[-74.0302065,40.1857741],[-74.0301719,40.185866],[-74.030145,40.1859823],[-74.0301216,40.1860561],[-74.0301131,40.1861111],[-74.030111,40.1861687],[-74.0301275,40.1862664],[-74.0301305,40.186309],[-74.0301286,40.1863365],[-74.0301104,40.1863752],[-74.0300791,40.1864164],[-74.030046,40.1864876],[-74.0300292,40.1865049],[-74.030023,40.1865113],[-74.0299836,40.1865412],[-74.0299672,40.1865574],[-74.0299605,40.1865824],[-74.0299562,40.186615],[-74.0299413,40.1866449],[-74.0299183,40.1866686],[-74.0299002,40.1866811],[-74.0298919,40.1866986],[-74.0298934,40.1867173],[-74.0298978,40.1867261],[-74.0299015,40.1867337],[-74.0299226,40.18675],[-74.0299437,40.1867601],[-74.0299501,40.1867802],[-74.0299467,40.1867964],[-74.029932,40.1868076],[-74.0299009,40.18682],[-74.0298745,40.1868525],[-74.0298547,40.1868912],[-74.029825,40.1869324],[-74.0297986,40.1869811],[-74.0297885,40.1870211],[-74.0297834,40.1870499],[-74.029771,40.1870724],[-74.0297314,40.1870966],[-74.0297284,40.1870985],[-74.0297104,40.1871047],[-74.0297005,40.1871184],[-74.0297037,40.1871334],[-74.0297135,40.1871439],[-74.0297215,40.1871523],[-74.0297474,40.1871787],[-74.029757,40.1872062],[-74.0297633,40.1872376],[-74.0297582,40.1872688],[-74.0297433,40.1872988],[-74.0297022,40.1873412],[-74.0296496,40.1873973],[-74.0295863,40.1875123],[-74.0295143,40.1876329],[-74.0295133,40.1876366],[-74.0294659,40.1877388],[-74.0293865,40.1878578],[-74.0293491,40.1879006],[-74.0292584,40.1880171],[-74.0292155,40.1880625],[-74.0291037,40.1881473],[-74.0290701,40.1881646],[-74.0290426,40.1881797],[-74.0290288,40.1881937],[-74.0290256,40.1882112],[-74.02903,40.1882299],[-74.0290269,40.1882462],[-74.0290131,40.1882567],[-74.0289505,40.1882786],[-74.0289094,40.1882808],[-74.0288515,40.1882759],[-74.0287337,40.1882503],[-74.0286139,40.1882237],[-74.0284614,40.1881898],[-74.0282623,40.1881456],[-74.0281589,40.1884202],[-74.0285303,40.1885122],[-74.0290515,40.1886104],[-74.0300001,40.1887823],[-74.0305025,40.1889002],[-74.0305828,40.1889018],[-74.0306626,40.188902],[-74.0307419,40.1889008],[-74.0308207,40.1888982],[-74.0308989,40.1888942],[-74.0309767,40.1888887],[-74.0310539,40.1888819],[-74.0311306,40.1888736],[-74.0312068,40.188864],[-74.0312824,40.1888529],[-74.0313576,40.1888404],[-74.0314322,40.1888265],[-74.0315063,40.1888112],[-74.0315799,40.1887944],[-74.031653,40.1887763],[-74.0317255,40.1887567],[-74.0317857,40.1887392],[-74.0318497,40.1887192],[-74.0319189,40.1886963],[-74.0319984,40.1886689],[-74.0320612,40.1886462],[-74.0321244,40.1886219],[-74.0321882,40.1885959],[-74.0322528,40.1885683],[-74.0323182,40.188539],[-74.0323847,40.1885077],[-74.0324527,40.1884745],[-74.0325224,40.1884392],[-74.0325872,40.1884052],[-74.0326544,40.188369],[-74.0327247,40.1883302],[-74.0327994,40.188288],[-74.0329348,40.1882096],[-74.0331797,40.1880655],[-74.0332752,40.1880097],[-74.0333911,40.1879436],[-74.0334368,40.187917],[-74.0334841,40.1878882],[-74.0335253,40.1878612],[-74.0335651,40.1878331],[-74.0336053,40.1878024],[-74.0336462,40.1877689],[-74.0336886,40.187732],[-74.0337244,40.1876995],[-74.0337633,40.1876627],[-74.0338964,40.1875329],[-74.0339493,40.1874824],[-74.0339959,40.1874394],[-74.0340486,40.187392],[-74.0342488,40.1872157],[-74.0343315,40.1871417],[-74.0343751,40.1871014],[-74.0344152,40.1870635],[-74.0344524,40.1870272],[-74.0344872,40.1869922],[-74.0345267,40.1869508],[-74.0345633,40.1869104],[-74.0345972,40.1868709],[-74.0346287,40.1868321],[-74.0346578,40.1867937],[-74.0346847,40.1867556],[-74.0347093,40.1867178],[-74.0347318,40.1866802],[-74.0347531,40.1866415],[-74.0347734,40.1866015],[-74.0347929,40.1865603],[-74.0348114,40.1865179],[-74.0348291,40.1864741],[-74.0348458,40.186429],[-74.0348617,40.1863826],[-74.0348768,40.1863347],[-74.0348909,40.1862856],[-74.0349043,40.1862349],[-74.0349169,40.1861826],[-74.0349287,40.1861284],[-74.0349399,40.1860724],[-74.0349504,40.1860142],[-74.0349604,40.1859534],[-74.0349699,40.1858893],[-74.0349734,40.1858609],[-74.034976,40.1858319],[-74.0349778,40.1858022],[-74.0349788,40.1857717],[-74.0349788,40.1857404],[-74.0349781,40.185708],[-74.0349765,40.1856745],[-74.034974,40.1856396],[-74.0349682,40.1855802],[-74.0349598,40.1855139],[-74.0349507,40.1854505],[-74.0349276,40.1852998],[-74.0349172,40.1852243],[-74.0349128,40.1851875],[-74.0349092,40.185153],[-74.0349064,40.18512],[-74.0349043,40.1850885],[-74.034903,40.1850582],[-74.0349023,40.1850289],[-74.0349024,40.1850004],[-74.0349031,40.1849727],[-74.0349045,40.1849456],[-74.0349067,40.1849191],[-74.0349095,40.1848931],[-74.0349131,40.1848676],[-74.0349213,40.1848192],[-74.034931,40.1847692],[-74.0349424,40.1847174],[-74.0349555,40.1846634],[-74.0349702,40.1846073],[-74.0349869,40.1845478],[-74.0350059,40.1844838],[-74.0350283,40.1844118],[-74.0350537,40.1843344],[-74.0350811,40.1842566],[-74.0351106,40.1841785],[-74.0351422,40.1841],[-74.0351758,40.1840213],[-74.0352114,40.1839422],[-74.035249,40.1838628],[-74.0352887,40.1837833],[-74.0353303,40.1837035],[-74.0353739,40.1836235],[-74.0354195,40.1835435],[-74.0354669,40.1834634],[-74.0355163,40.1833832],[-74.0355675,40.183303],[-74.0356205,40.1832229],[-74.0356754,40.183143],[-74.0357092,40.1830938],[-74.0357466,40.1830383],[-74.0358687,40.1828532],[-74.0359141,40.1827853],[-74.0359583,40.1827204],[-74.0359993,40.1826621],[-74.0360252,40.1826263],[-74.0360505,40.1825922],[-74.0360754,40.1825595],[-74.0361,40.1825281],[-74.0361244,40.1824979],[-74.0361487,40.1824687],[-74.0361729,40.1824405],[-74.0361971,40.1824133],[-74.0362243,40.1823838],[-74.0362515,40.1823554],[-74.0362789,40.1823281],[-74.0363064,40.1823017],[-74.0363342,40.1822763],[-74.0363621,40.1822518],[-74.0363904,40.1822283],[-74.0364188,40.1822057],[-74.0364476,40.1821839],[-74.0364767,40.182163],[-74.0365062,40.1821429],[-74.036536,40.1821237],[-74.0365661,40.1821054],[-74.0365966,40.1820878],[-74.0366275,40.1820711],[-74.0366588,40.1820552],[-74.0367327,40.1820195],[-74.0367618,40.1820061],[-74.0367888,40.1819941],[-74.0368152,40.1819831],[-74.0368405,40.1819732],[-74.036865,40.1819643],[-74.0368888,40.1819563],[-74.0369116,40.1819494],[-74.0369357,40.181943],[-74.0369616,40.1819368],[-74.0369897,40.1819309],[-74.0370363,40.1819222],[-74.0371429,40.1819044],[-74.0371901,40.1818958],[-74.0373196,40.1818709],[-74.037447,40.1818468],[-74.0375724,40.1818236],[-74.037696,40.1818012],[-74.037818,40.1817796],[-74.0379383,40.1817588],[-74.0380572,40.1817387],[-74.0381747,40.1817194],[-74.038291,40.1817008],[-74.0384061,40.1816829],[-74.03852,40.1816658],[-74.0386327,40.1816493],[-74.0387444,40.1816336],[-74.0388551,40.1816185],[-74.0389648,40.1816042],[-74.0390736,40.1815905],[-74.0391818,40.1815774],[-74.0392891,40.181565],[-74.0393956,40.1815533],[-74.0395013,40.1815423],[-74.0396062,40.1815319],[-74.0397103,40.1815222],[-74.0398137,40.1815132],[-74.0399164,40.1815048],[-74.0400183,40.1814971],[-74.0401196,40.18149],[-74.0402203,40.1814836],[-74.0403202,40.1814778],[-74.0404196,40.1814727],[-74.0405183,40.1814683],[-74.0406165,40.1814645],[-74.040714,40.1814613],[-74.0408017,40.181459],[-74.0408762,40.1814576],[-74.0409422,40.181457],[-74.0410019,40.1814571],[-74.0410577,40.1814581],[-74.0411102,40.1814598],[-74.0411606,40.1814624],[-74.0412099,40.1814659],[-74.0412593,40.1814704],[-74.0413092,40.1814759],[-74.0413608,40.1814826],[-74.0414149,40.1814906],[-74.0414723,40.1815],[-74.0415348,40.1815111],[-74.0416039,40.1815241],[-74.0416824,40.1815396],[-74.0437514,40.1824042],[-74.0445225,40.1827631],[-74.0453705,40.1831818],[-74.0467767,40.184003],[-74.0484828,40.1851498],[-74.04855,40.1852279],[-74.0486029,40.1852764],[-74.0487039,40.1853509],[-74.048805,40.1854106],[-74.0489255,40.1854779],[-74.0489975,40.1855523],[-74.048997,40.1856264],[-74.0490104,40.1856759],[-74.0490519,40.1857212],[-74.0491434,40.1857772],[-74.0492206,40.1858034],[-74.0493219,40.1858372],[-74.0494352,40.1858895],[-74.0495461,40.1859326],[-74.0496716,40.1859646],[-74.0497706,40.1859836],[-74.0499034,40.1860008],[-74.0500484,40.1860069],[-74.0501354,40.1860017],[-74.0502564,40.1859873],[-74.0503507,40.1859802],[-74.0504293,40.1859796],[-74.0505042,40.185991],[-74.0506224,40.1860156],[-74.0507335,40.1860346],[-74.0508639,40.1860536],[-74.050958,40.1860725],[-74.0510642,40.1861082],[-74.0511856,40.1861985],[-74.0513011,40.1862917],[-74.0513949,40.1863551],[-74.0514937,40.1863981],[-74.0515999,40.1864245],[-74.0517087,40.1864323],[-74.0518295,40.1864291],[-74.0519723,40.1864037],[-74.0521551,40.1863571],[-74.0523149,40.1863151],[-74.0524336,40.1862877],[-74.0525714,40.1862808],[-74.0526874,40.1862887],[-74.0527767,40.1863076],[-74.0528683,40.1863487],[-74.0529525,40.1864065],[-74.0530052,40.1864716],[-74.0530819,40.1865757],[-74.0531832,40.1868032],[-74.053245,40.1869518],[-74.0532826,40.1871262],[-74.0533875,40.1873416],[-74.0535115,40.1875102],[-74.0535484,40.1875587],[-74.0535959,40.187615],[-74.0536566,40.1876785],[-74.0537416,40.187749],[-74.0538388,40.187815],[-74.0539545,40.1878716],[-74.0540671,40.1879283],[-74.0541706,40.1879731],[-74.0542772,40.1879993],[-74.0543627,40.1880114],[-74.0544542,40.1880211],[-74.0545884,40.1880333],[-74.0546769,40.1880383],[-74.0547991,40.1880318],[-74.0549243,40.1880276],[-74.0550954,40.1880142],[-74.0552359,40.187996],[-74.0553827,40.1879661],[-74.0555447,40.1879386],[-74.0556669,40.187918],[-74.0558198,40.1878882],[-74.0559391,40.1878512],[-74.0560431,40.1878258],[-74.0561683,40.1878146],[-74.056266,40.187815],[-74.0563881,40.1878224],[-74.0564643,40.1878415],[-74.0565526,40.1878769],[-74.0566469,40.1879218],[-74.056729,40.1879783],[-74.0568445,40.188063],[-74.0569599,40.1881501],[-74.0570419,40.1882253],[-74.0571116,40.1883005],[-74.05716,40.1883686],[-74.0571901,40.1884249],[-74.057202,40.1884765],[-74.0571833,40.1885373],[-74.0571402,40.1886051],[-74.0570879,40.1886634],[-74.0570384,40.1887615],[-74.0570195,40.1888504],[-74.0570097,40.1889487],[-74.0570274,40.1890331],[-74.057051,40.189162],[-74.0570839,40.1892675],[-74.057126,40.1893683],[-74.0571713,40.1894457],[-74.0572074,40.1895349],[-74.0572151,40.1895474],[-74.0572436,40.1895936],[-74.0572861,40.1896405],[-74.0573255,40.1896735],[-74.0573955,40.1897159],[-74.0574929,40.1897654],[-74.0576024,40.1898197],[-74.0576998,40.1898716],[-74.0577758,40.189921],[-74.0579065,40.1900058],[-74.0581406,40.1901566],[-74.058241,40.1902132],[-74.0583414,40.1902721],[-74.0584448,40.1903334],[-74.0585513,40.19039],[-74.0586396,40.1904325],[-74.0587187,40.1904726],[-74.0587977,40.1905267],[-74.0588676,40.1905855],[-74.0589465,40.1906561],[-74.058998,40.1907171],[-74.0590554,40.190804],[-74.0590975,40.1909142],[-74.0591456,40.1910291],[-74.0591847,40.1911136],[-74.0592116,40.1912097],[-74.0592353,40.1913198],[-74.059262,40.191444],[-74.0592765,40.1915565],[-74.0592698,40.1916501],[-74.0592481,40.1917015],[-74.0592111,40.1917599],[-74.0591126,40.1918696],[-74.0590389,40.1919419],[-74.0589712,40.1920259],[-74.058934,40.1921077],[-74.0589305,40.1921873],[-74.0589375,40.1922107],[-74.0589424,40.1922272],[-74.0589878,40.1922929],[-74.0590908,40.1924104],[-74.0591909,40.1925091],[-74.0592516,40.1925772],[-74.059291,40.1926195],[-74.0593336,40.1926478],[-74.0594127,40.1926832],[-74.0594675,40.1927162],[-74.0595465,40.192761],[-74.0596012,40.1928081],[-74.059677,40.1928996],[-74.0597678,40.1930171],[-74.0598829,40.1931627],[-74.0600161,40.1933365],[-74.0600978,40.1934421],[-74.06014,40.1934782],[-74.0601555,40.1934915],[-74.0602376,40.1935457],[-74.0603168,40.1935811],[-74.0604356,40.1936237],[-74.0605179,40.1936521],[-74.0605905,40.193684],[-74.0606092,40.1936923],[-74.0607066,40.1937418],[-74.0607704,40.1937865],[-74.0607977,40.1938124],[-74.0608049,40.1938495],[-74.0608095,40.1938733],[-74.060803,40.1939389],[-74.0607843,40.194009],[-74.0607716,40.1940652],[-74.0607651,40.1941307],[-74.060768,40.1941612],[-74.0607952,40.1941988],[-74.0608287,40.1942153],[-74.0608927,40.1942342],[-74.0609659,40.1942462],[-74.0610972,40.1942514],[-74.0612193,40.1942542],[-74.0612956,40.1942522],[-74.0614331,40.194248],[-74.0615583,40.1942368],[-74.0616256,40.1942253],[-74.0616806,40.1942138],[-74.0617357,40.1941929],[-74.0618,40.1941628],[-74.0618642,40.1941442],[-74.0619315,40.1941234],[-74.0620018,40.194112],[-74.0620599,40.1941052],[-74.0620841,40.1941078],[-74.062127,40.1941125],[-74.0621819,40.1941314],[-74.0622181,40.1941497],[-74.0622427,40.1941621],[-74.0623005,40.1942045],[-74.0623947,40.194275],[-74.0624645,40.1943315],[-74.0625015,40.1943677],[-74.0625131,40.1943785],[-74.0625331,40.1943945],[-74.0625848,40.1944355],[-74.0626231,40.1944599],[-74.0626343,40.1944674],[-74.0626439,40.1944723],[-74.062656,40.1944767],[-74.0626652,40.194479],[-74.0626737,40.1944798],[-74.0626833,40.1944799],[-74.0626941,40.1944803],[-74.0627084,40.1944808],[-74.0627321,40.1944828],[-74.0627457,40.1944848],[-74.0627613,40.1944884],[-74.0627768,40.1944924],[-74.0627937,40.194497],[-74.0628123,40.1945044],[-74.0628918,40.194536],[-74.0629529,40.1945629],[-74.0630876,40.1946243],[-74.0631017,40.1946321],[-74.0631265,40.1946516],[-74.0631492,40.1946736],[-74.0631652,40.1946946],[-74.063174,40.1947143],[-74.0631793,40.19473],[-74.0631822,40.1947574],[-74.0631824,40.1947584],[-74.0631823,40.1947764],[-74.0631776,40.1947987],[-74.0631713,40.1948117],[-74.0631651,40.1948221],[-74.0631539,40.1948325],[-74.063137,40.1948476],[-74.0630712,40.1948976],[-74.062997,40.1949539],[-74.0629229,40.1950059],[-74.0628844,40.1950362],[-74.0628681,40.1950511],[-74.0627555,40.1951493],[-74.0626947,40.1952105],[-74.0626453,40.1952692],[-74.0625909,40.1953366],[-74.0625513,40.1953966],[-74.0625348,40.1954279],[-74.0625015,40.1955013],[-74.0624444,40.195576],[-74.0623912,40.1956291],[-74.0623464,40.1956673],[-74.0623129,40.1956885],[-74.0622654,40.1957203],[-74.0622123,40.1957585],[-74.0621509,40.1957988],[-74.062095,40.1958391],[-74.062053,40.1958731],[-74.0620194,40.1959156],[-74.061994,40.1959646],[-74.061966,40.1960029],[-74.0619434,40.1960476],[-74.0619293,40.1960795],[-74.0619207,40.19612],[-74.0619232,40.196167],[-74.0619313,40.1962097],[-74.0619478,40.1962374],[-74.061981,40.1962696],[-74.0620308,40.1963039],[-74.0620807,40.1963297],[-74.0621306,40.196349],[-74.0622112,40.1963664],[-74.0623085,40.1963796],[-74.0624001,40.1963991],[-74.062489,40.1964229],[-74.0625015,40.1964258],[-74.062597,40.19646],[-74.0626157,40.1964687],[-74.0626289,40.1964779],[-74.0626463,40.1964918],[-74.0626552,40.1965045],[-74.0626733,40.1965326],[-74.0626873,40.1965622],[-74.0627133,40.1966231],[-74.0627309,40.1966734],[-74.0627422,40.196722],[-74.0627471,40.1967341],[-74.0627521,40.1967412],[-74.0627612,40.1967489],[-74.0627719,40.1967546],[-74.062786,40.1967598],[-74.0628019,40.196763],[-74.0628202,40.1967644],[-74.0628402,40.1967626],[-74.0628618,40.1967569],[-74.062881,40.1967506],[-74.0628977,40.1967404],[-74.0629159,40.1967267],[-74.0629445,40.1967019],[-74.062969,40.1966817],[-74.0630078,40.1966554],[-74.0630527,40.1966228],[-74.0630775,40.1966103],[-74.0630996,40.1966027],[-74.0631565,40.1965874],[-74.0632003,40.1965782],[-74.0632716,40.1965551],[-74.0633052,40.1965409],[-74.0633327,40.1965226],[-74.0633613,40.1964931],[-74.0633923,40.1964602],[-74.0634124,40.1964443],[-74.0634224,40.1964392],[-74.0634349,40.196438],[-74.0634482,40.1964381],[-74.0634604,40.1964402],[-74.0634754,40.1964483],[-74.0634976,40.1964687],[-74.0635138,40.1964905],[-74.0635339,40.1965171],[-74.0635453,40.1965304],[-74.0635582,40.1965406],[-74.0635906,40.1965563],[-74.0636371,40.1965767],[-74.0636757,40.1965878],[-74.0637143,40.1965973],[-74.0637853,40.1966116],[-74.0638117,40.1966163],[-74.0638583,40.1966259],[-74.0639111,40.1966323],[-74.0639558,40.1966356],[-74.0640025,40.1966389],[-74.0640391,40.1966374],[-74.0640579,40.1966369],[-74.0640716,40.1966407],[-74.064104,40.1966564],[-74.0641263,40.1966721],[-74.0641799,40.196705],[-74.0642204,40.1967347],[-74.0642467,40.1967535],[-74.0642569,40.1967583],[-74.064271,40.1967614],[-74.0642954,40.1967631],[-74.0643299,40.1967648],[-74.0644335,40.1967683],[-74.0645168,40.1967732],[-74.0645838,40.1967766],[-74.0646488,40.19678],[-74.0647016,40.1967864],[-74.0647463,40.1967944],[-74.0648132,40.196818],[-74.0648415,40.1968337],[-74.0648679,40.1968462],[-74.0649196,40.1968589],[-74.0649595,40.1968657],[-74.0650069,40.1968686],[-74.0650537,40.1968656],[-74.0650844,40.1968597],[-74.0651127,40.1968519],[-74.0651295,40.1968407],[-74.0651345,40.1968361],[-74.0651392,40.1968317],[-74.0651741,40.1967819],[-74.0652089,40.1967291],[-74.0652403,40.1966841],[-74.0652684,40.1966514],[-74.0653012,40.1966033],[-74.0653361,40.1965473],[-74.0653487,40.1965307],[-74.0653627,40.1965193],[-74.0653973,40.1965054],[-74.0654258,40.1964977],[-74.0654705,40.1964901],[-74.0654945,40.1964818],[-74.0654971,40.1964809],[-74.0655038,40.1964761],[-74.0655338,40.1964545],[-74.0655635,40.1964235],[-74.065588,40.1963955],[-74.0655985,40.1963861],[-74.0656125,40.1963785],[-74.0656378,40.1963667],[-74.0656858,40.1963523],[-74.0656987,40.1963573],[-74.0657085,40.1963679],[-74.0657157,40.1963837],[-74.065733,40.1964228],[-74.0657544,40.1964551],[-74.0657595,40.1964547],[-74.0657755,40.1964597],[-74.0658126,40.1964759],[-74.0658414,40.1965057],[-74.0658622,40.196533],[-74.0658911,40.1965579],[-74.0659103,40.1965753],[-74.0659167,40.1965877],[-74.0659327,40.1966051],[-74.0659407,40.1966224],[-74.0659535,40.1966447],[-74.0659695,40.1966633],[-74.0660049,40.1966833],[-74.0660355,40.196692],[-74.0660677,40.1966996],[-74.0660999,40.1967071],[-74.0661208,40.1967134],[-74.0661284,40.1967229],[-74.0661291,40.1967435],[-74.0661342,40.19676],[-74.0661446,40.1967687],[-74.0661568,40.1967737],[-74.0662166,40.19677],[-74.0662824,40.1967577],[-74.0663215,40.19675],[-74.0663668,40.1967359],[-74.0663869,40.1967258],[-74.0663915,40.1967234],[-74.0664122,40.196703],[-74.066439,40.1966779],[-74.0664515,40.1966496],[-74.0664578,40.1966323],[-74.0664682,40.1966166],[-74.0664847,40.1966009],[-74.0664991,40.1965899],[-74.0665053,40.1965837],[-74.0665116,40.1965695],[-74.0665036,40.1965443],[-74.0664914,40.1965206],[-74.0664874,40.1965033],[-74.0664895,40.196497],[-74.0664978,40.1964876],[-74.0665265,40.1964814],[-74.0665553,40.1964736],[-74.0665698,40.1964642],[-74.0665781,40.1964516],[-74.0665823,40.1964343],[-74.0665845,40.1964154],[-74.0665826,40.1963934],[-74.0665744,40.1963823],[-74.0665621,40.1963744],[-74.0665458,40.1963617],[-74.0665338,40.1963542],[-74.0665276,40.1963462],[-74.0665256,40.1963382],[-74.0665267,40.1963215],[-74.066531,40.1962968],[-74.0665303,40.1962482],[-74.0665336,40.1962171],[-74.0665422,40.1961725],[-74.0665518,40.1961335],[-74.0665581,40.19612],[-74.0665655,40.1961113],[-74.0665748,40.1961073],[-74.0665977,40.196101],[-74.0666144,40.1960995],[-74.0666559,40.1961013],[-74.0666798,40.1961022],[-74.0666974,40.196103],[-74.0667099,40.1961023],[-74.0667234,40.1960983],[-74.0667402,40.1960833],[-74.0667642,40.1960515],[-74.0667905,40.1960149],[-74.0668218,40.1959776],[-74.0668533,40.1959267],[-74.066914,40.19586],[-74.0669433,40.1958283],[-74.0669621,40.1958124],[-74.0669913,40.1958014],[-74.0670412,40.1957904],[-74.0670787,40.195781],[-74.0671141,40.1957604],[-74.0671621,40.1957335],[-74.0672164,40.1956955],[-74.0672497,40.1956781],[-74.0672851,40.1956623],[-74.0673142,40.1956592],[-74.0673558,40.1956673],[-74.0674241,40.195701],[-74.0674489,40.1957218],[-74.0674767,40.1957513],[-74.0674928,40.1957703],[-74.0675084,40.1957958],[-74.0675139,40.1958191],[-74.0675138,40.1958372],[-74.0675148,40.1958566],[-74.0675214,40.1958661],[-74.0675354,40.1958782],[-74.0675505,40.195883],[-74.0675674,40.1958848],[-74.0675792,40.1958844],[-74.0675944,40.1958797],[-74.0676096,40.1958724],[-74.0676293,40.195863],[-74.0676479,40.1958549],[-74.0676626,40.1958459],[-74.067675,40.1958408],[-74.0676857,40.1958357],[-74.0676964,40.1958331],[-74.0677065,40.1958328],[-74.0677239,40.195835],[-74.0677548,40.1958445],[-74.0677795,40.195852],[-74.0678047,40.1958598],[-74.0678209,40.1958642],[-74.0678445,40.1958669],[-74.0678726,40.1958687],[-74.0678951,40.1958696],[-74.0679131,40.1958693],[-74.0679339,40.1958681],[-74.0679619,40.1958656],[-74.0679844,40.1958665],[-74.0680074,40.1958714],[-74.0680299,40.1958762],[-74.0680433,40.1958835],[-74.0680545,40.1958944],[-74.0680578,40.1959013],[-74.0680583,40.1959099],[-74.0680572,40.1959194],[-74.0680549,40.1959241],[-74.0680402,40.1959357],[-74.0680176,40.1959558],[-74.0679983,40.195976],[-74.0679904,40.1959855],[-74.0679808,40.1960018],[-74.0679711,40.1960212],[-74.0679648,40.196041],[-74.067963,40.196053],[-74.0679618,40.1960702],[-74.0679628,40.1960879],[-74.0679667,40.1960983],[-74.0679716,40.1961086],[-74.0679823,40.1961177],[-74.0679929,40.1961221],[-74.068003,40.196126],[-74.0680159,40.1961278],[-74.0680305,40.1961269],[-74.0680446,40.196124],[-74.0680576,40.1961189],[-74.0680728,40.1961103],[-74.0680942,40.1960974],[-74.0681117,40.1960863],[-74.068127,40.196073],[-74.0681439,40.196058],[-74.0681631,40.1960395],[-74.0681841,40.1960181],[-74.0681999,40.1960005],[-74.0682203,40.1959807],[-74.0682366,40.1959678],[-74.0682502,40.195958],[-74.0682626,40.1959511],[-74.0682733,40.1959452],[-74.0682795,40.1959439],[-74.0682941,40.1959422],[-74.0683171,40.195941],[-74.0683312,40.1959415],[-74.0683592,40.1959455],[-74.0683817,40.1959559],[-74.0684001,40.195971],[-74.0684084,40.1959879],[-74.0684111,40.196006],[-74.068407,40.1960422],[-74.0684034,40.1960745],[-74.0684028,40.1960861],[-74.0684016,40.1960947],[-74.0683998,40.1960985],[-74.0683934,40.1961026],[-74.0683919,40.1961035],[-74.068381,40.1961075],[-74.0683734,40.1961084],[-74.0683475,40.1961101],[-74.0683312,40.196113],[-74.0683171,40.1961194],[-74.0682985,40.1961288],[-74.0682822,40.1961382],[-74.0682737,40.1961455],[-74.068268,40.1961571],[-74.0682623,40.1961761],[-74.0682582,40.1961976],[-74.0682598,40.196214],[-74.0682647,40.1962291],[-74.0682798,40.1962494],[-74.0682976,40.1962727],[-74.0683027,40.1962772],[-74.0683222,40.1962943],[-74.0683322,40.1963082],[-74.0683399,40.1963315],[-74.0683454,40.1963565],[-74.0683519,40.1963961],[-74.0683519,40.1963962],[-74.0683089,40.1964356],[-74.0682875,40.1964562],[-74.0682558,40.1964854],[-74.0682228,40.196511],[-74.0682146,40.1965182],[-74.0681969,40.1965333],[-74.0681883,40.1965441],[-74.0681825,40.196553],[-74.0681766,40.1965622],[-74.0681729,40.1965696],[-74.068171,40.1965763],[-74.0681694,40.1965832],[-74.0681688,40.1965882],[-74.0681686,40.1965941],[-74.0681687,40.1965996],[-74.0681699,40.1966051],[-74.0681715,40.1966107],[-74.0681739,40.196616],[-74.0681786,40.1966208],[-74.0681851,40.1966251],[-74.0681929,40.1966291],[-74.0682017,40.1966328],[-74.0682116,40.1966356],[-74.0682234,40.1966401],[-74.068232,40.196644],[-74.0682403,40.1966486],[-74.0682474,40.1966525],[-74.0682545,40.1966574],[-74.0682586,40.1966622],[-74.068262,40.1966674],[-74.0682657,40.1966745],[-74.068268,40.1966795],[-74.0682699,40.1966862],[-74.0682716,40.196692],[-74.0682719,40.1966976],[-74.0682715,40.1967049],[-74.0682698,40.1967122],[-74.0682642,40.1967294],[-74.0682587,40.1967403],[-74.0682525,40.1967522],[-74.0682507,40.1967588],[-74.0682506,40.1967616],[-74.0682524,40.1967709],[-74.0682545,40.1967767],[-74.0682571,40.1967813],[-74.0682607,40.1967878],[-74.0682636,40.1967928],[-74.0682672,40.1967973],[-74.0682706,40.1968013],[-74.0682758,40.1968064],[-74.0682834,40.1968133],[-74.0682985,40.1968279],[-74.0683176,40.1968449],[-74.0683225,40.1968492],[-74.0683275,40.1968529],[-74.0683351,40.1968585],[-74.0683427,40.1968636],[-74.0683497,40.196867],[-74.0683576,40.1968703],[-74.0683611,40.1968714],[-74.0683821,40.1968772],[-74.0684018,40.196883],[-74.0684254,40.1968896],[-74.0684649,40.1968989],[-74.0684798,40.196902],[-74.0684997,40.196904],[-74.0685172,40.1969048],[-74.0685426,40.1969052],[-74.0685556,40.1969044],[-74.0685654,40.1969034],[-74.0685851,40.1968983],[-74.0686104,40.196891],[-74.0686409,40.1968813],[-74.0686641,40.196872],[-74.0686893,40.1968612],[-74.0687975,40.1968289],[-74.0688598,40.1968075],[-74.0689307,40.1967828],[-74.068969,40.1967645],[-74.0690158,40.1967528],[-74.0690583,40.196741],[-74.0690824,40.1967411],[-74.0691022,40.1967433],[-74.0691247,40.1967543],[-74.0691528,40.1967869],[-74.0691892,40.1968544],[-74.0692212,40.1969402],[-74.0692281,40.1969717],[-74.0692321,40.197014],[-74.0692305,40.1970444],[-74.069219,40.1970683],[-74.0691976,40.197091],[-74.0691805,40.1971072],[-74.0691776,40.197118],[-74.0691773,40.1971227],[-74.0691761,40.1971354],[-74.069183,40.1971593],[-74.0692139,40.1972072],[-74.0692698,40.1973116],[-74.069323,40.197404],[-74.0693411,40.1974507],[-74.0693523,40.1974758],[-74.0693522,40.1974964],[-74.069342,40.1975354],[-74.0693118,40.1976069],[-74.0692803,40.1976697],[-74.0692659,40.1977033],[-74.0692602,40.1977228],[-74.0692601,40.197738],[-74.0692539,40.1978129],[-74.069255,40.1978693],[-74.0692618,40.1979171],[-74.06927,40.1979562],[-74.0692755,40.1979855],[-74.0692809,40.1980235],[-74.0692779,40.198042],[-74.0692665,40.1980593],[-74.0692338,40.1980842],[-74.0691912,40.1981155],[-74.0691514,40.1981338],[-74.0691386,40.1981413],[-74.0691244,40.1981543],[-74.0691087,40.1981738],[-74.0691015,40.1981889],[-74.0691014,40.1982074],[-74.0690956,40.1982323],[-74.0690913,40.1982421],[-74.0690813,40.198254],[-74.0690586,40.1982647],[-74.0690373,40.1982766],[-74.0690273,40.1982907],[-74.0690286,40.1983069],[-74.069034,40.198345],[-74.0690521,40.1983895],[-74.0690745,40.1984265],[-74.0691238,40.198469],[-74.0691873,40.198504],[-74.0692254,40.1985204],[-74.0692861,40.1985401],[-74.0693582,40.1985632],[-74.0694175,40.1985765],[-74.069484,40.1985875],[-74.0695434,40.1985932],[-74.0696014,40.1985913],[-74.0696641,40.1985942],[-74.0697014,40.1986014],[-74.0697701,40.1986213],[-74.069804,40.1986367],[-74.0698355,40.1986528],[-74.0698603,40.1986669],[-74.0698892,40.1986848],[-74.069909,40.1986969],[-74.0699339,40.1987085],[-74.0699575,40.1987176],[-74.0700422,40.1987499],[-74.0701223,40.1987809],[-74.0702115,40.1988251],[-74.0703237,40.198893],[-74.0704237,40.1989513],[-74.0704991,40.198993],[-74.0705391,40.1990097],[-74.0706114,40.1990419],[-74.0706669,40.1990599],[-74.0707331,40.1990862],[-74.0707792,40.1991089],[-74.0708284,40.1991422],[-74.0708645,40.1991739],[-74.0709036,40.1992158],[-74.070928,40.1992573],[-74.0709517,40.1992913],[-74.0709715,40.199313],[-74.0710123,40.1993464],[-74.0710907,40.1993964],[-74.0711369,40.1994191],[-74.0711815,40.1994393],[-74.0712188,40.1994536],[-74.0712499,40.1994776],[-74.0712832,40.1995102],[-74.0713385,40.1995737],[-74.0713872,40.1996389],[-74.0714382,40.1996836],[-74.0714871,40.199718],[-74.0715472,40.1997421],[-74.0716116,40.1997869],[-74.0716848,40.1998487],[-74.071747,40.19989],[-74.0717626,40.199896],[-74.071774,40.1998999],[-74.0717862,40.1999012],[-74.071796,40.1999022],[-74.0718362,40.1999006],[-74.0718964,40.1998957],[-74.0719456,40.1998942],[-74.0719857,40.199896],[-74.0720031,40.1998982],[-74.0720153,40.1999014],[-74.0720373,40.1999083],[-74.0720673,40.1999222],[-74.072095,40.199936],[-74.0721169,40.1999467],[-74.0721436,40.1999667],[-74.0722036,40.20002],[-74.0722635,40.2000698],[-74.072319,40.2001111],[-74.0723678,40.2001455],[-74.0724101,40.2001713],[-74.0724524,40.2001886],[-74.0725169,40.2002093],[-74.072597,40.2002404],[-74.0726638,40.2002629],[-74.0727396,40.2002769],[-74.0728442,40.2003097],[-74.0729244,40.2003289],[-74.0729712,40.2003376],[-74.0730203,40.2003446],[-74.0731587,40.200429],[-74.0732379,40.2004711],[-74.0734362,40.2005214],[-74.0736148,40.2005449],[-74.0736787,40.2005439],[-74.0737306,40.2005508],[-74.0738208,40.200557],[-74.07395,40.2005461],[-74.0741124,40.2005094],[-74.0741414,40.2004976],[-74.0741663,40.2004926],[-74.0741974,40.2004861],[-74.0742464,40.2004845],[-74.0742509,40.2004844],[-74.0743169,40.2004702],[-74.0743613,40.2004859],[-74.0744504,40.2005489],[-74.0744876,40.2005748],[-74.0745271,40.2006064],[-74.074558,40.2006389],[-74.0745789,40.2006771],[-74.0745936,40.2007047],[-74.074596,40.2007204],[-74.0746585,40.2008076],[-74.0747469,40.2009565],[-74.0747714,40.2010578],[-74.0747776,40.2010712],[-74.0747867,40.2010996],[-74.0747959,40.201136],[-74.074803,40.2011818],[-74.0748078,40.201218],[-74.0748088,40.2012504],[-74.0748122,40.2013114],[-74.0748132,40.2013523],[-74.0748079,40.2014009],[-74.074799,40.2014275],[-74.0747864,40.2014541],[-74.0747664,40.2014808],[-74.0747603,40.2014935],[-74.0747563,40.2015074],[-74.0747568,40.2015218],[-74.0747598,40.2015426],[-74.0747658,40.201577],[-74.074778,40.2016094],[-74.0747861,40.2016213],[-74.074794,40.2016304],[-74.0748076,40.2016381],[-74.0748177,40.2016403],[-74.07483,40.201641],[-74.074854,40.2016394],[-74.0748728,40.2016375],[-74.0748884,40.2016346],[-74.074927,40.2016223],[-74.0749407,40.2016138],[-74.0749507,40.2016094],[-74.0749636,40.2016085],[-74.0749792,40.2016071],[-74.0749967,40.2016086],[-74.0750103,40.2016122],[-74.0750289,40.2016227],[-74.0750512,40.2016304],[-74.0750748,40.2016333],[-74.0750897,40.2016324],[-74.0751084,40.2016249],[-74.0751408,40.2016012],[-74.075172,40.2015756],[-74.075217,40.2015405],[-74.0752369,40.2015234],[-74.0752495,40.2015092],[-74.0752645,40.2014873],[-74.0752733,40.2014655],[-74.0752809,40.2014417],[-74.0752935,40.2014189],[-74.0753185,40.2013894],[-74.075356,40.2013553],[-74.0754047,40.2013145],[-74.0754484,40.2012832],[-74.0754795,40.2012662],[-74.0755022,40.2012535],[-74.0755146,40.2012473],[-74.0755281,40.2012424],[-74.0755421,40.2012408],[-74.0755556,40.2012413],[-74.0755717,40.2012438],[-74.075583,40.2012484],[-74.0755964,40.2012547],[-74.0756055,40.2012609],[-74.0756162,40.2012688],[-74.0756298,40.2012829],[-74.0756605,40.201325],[-74.0756987,40.2013804],[-74.0757431,40.2014405],[-74.0757689,40.2014797],[-74.0757862,40.2015064],[-74.0757997,40.2015246],[-74.075817,40.2015351],[-74.0758307,40.201539],[-74.0758468,40.2015409],[-74.075863,40.2015391],[-74.0758829,40.2015325],[-74.0759065,40.2015211],[-74.0759352,40.2015079],[-74.0759776,40.2014871],[-74.0760162,40.2014682],[-74.0760486,40.2014502],[-74.0760636,40.2014388],[-74.0760686,40.2014303],[-74.0760737,40.2014189],[-74.0760726,40.2013913],[-74.076069,40.2013731],[-74.076058,40.2013445],[-74.0760334,40.2013082],[-74.0760161,40.2012843],[-74.0760088,40.2012586],[-74.0760064,40.2012462],[-74.0760114,40.2012358],[-74.0760276,40.2012244],[-74.0760476,40.2012178],[-74.0760774,40.2012169],[-74.0761233,40.20122],[-74.0761494,40.201222],[-74.0762375,40.2012442],[-74.0762673,40.20125],[-74.0763107,40.2012584],[-74.0763339,40.2012654],[-74.0763504,40.2012724],[-74.0763571,40.2012776],[-74.0763608,40.2012886],[-74.0763585,40.2012989],[-74.0763516,40.2013168],[-74.0763538,40.2013295],[-74.0763605,40.2013381],[-74.076371,40.2013451],[-74.0763807,40.2013497],[-74.0763965,40.2013498],[-74.0764153,40.201347],[-74.0764417,40.2013413],[-74.0764605,40.2013397],[-74.0764823,40.2013374],[-74.0764974,40.2013369],[-74.0765169,40.2013376],[-74.0765379,40.2013434],[-74.0765724,40.2013585],[-74.0766143,40.2013783],[-74.0766742,40.2014119],[-74.0767282,40.2014467],[-74.0767566,40.2014699],[-74.076764,40.2014929],[-74.0767668,40.2015229],[-74.0767606,40.2015563],[-74.0767424,40.2015793],[-74.0767211,40.2016092],[-74.0767134,40.2016414],[-74.0767163,40.2016611],[-74.0767253,40.2016726],[-74.0767432,40.2016854],[-74.0767627,40.2016924],[-74.0767988,40.2016994],[-74.0768198,40.2016995],[-74.0768349,40.2016949],[-74.076853,40.20168],[-74.0768877,40.2016536],[-74.0769254,40.2016296],[-74.0769677,40.2016032],[-74.0770055,40.201578],[-74.077019,40.2015699],[-74.0770401,40.2015654],[-74.0770551,40.2015678],[-74.0770791,40.2015782],[-74.0771061,40.2015829],[-74.0771287,40.2015819],[-74.0771513,40.2015773],[-74.0771634,40.2015693],[-74.077174,40.2015521],[-74.0771712,40.2015163],[-74.0771626,40.2014506],[-74.077151,40.2013848],[-74.0771482,40.2013514],[-74.077132,40.2012948],[-74.0771217,40.2012602],[-74.0771113,40.201236],[-74.0771069,40.2012129],[-74.0771085,40.2011991],[-74.0771101,40.2011853],[-74.0771207,40.2011703],[-74.0771403,40.2011612],[-74.077196,40.2011545],[-74.0772426,40.20115],[-74.0772787,40.2011478],[-74.0772968,40.2011456],[-74.0773224,40.2011307],[-74.0773421,40.2011169],[-74.0773632,40.2010974],[-74.0773783,40.2010894],[-74.0774001,40.2010709],[-74.0774148,40.2010586],[-74.0774341,40.2010457],[-74.0774457,40.2010439],[-74.0774587,40.2010446],[-74.0774833,40.2010535],[-74.0775156,40.2010737],[-74.0775538,40.2011081],[-74.0775814,40.2011348],[-74.0776112,40.2011685],[-74.0776202,40.2011782],[-74.0776323,40.2011947],[-74.0776424,40.2012108],[-74.0776531,40.2012228],[-74.0776682,40.2012311],[-74.0776847,40.2012342],[-74.0777178,40.2012414],[-74.0777393,40.2012467],[-74.0777495,40.2012535],[-74.0777625,40.2012715],[-74.0777761,40.2013167],[-74.0777795,40.2013626],[-74.0777831,40.201396],[-74.0777843,40.2014063],[-74.0777867,40.2014141],[-74.0777918,40.2014199],[-74.0777984,40.2014247],[-74.0778068,40.2014281],[-74.0778177,40.2014305],[-74.0778375,40.2014299],[-74.0778513,40.2014281],[-74.0778668,40.2014229],[-74.0778811,40.2014148],[-74.0778975,40.201404],[-74.0779052,40.2013954],[-74.0779126,40.201385],[-74.0779182,40.201371],[-74.0779214,40.2013583],[-74.0779266,40.2013278],[-74.0779281,40.2012906],[-74.0779259,40.2012438],[-74.0779285,40.2012257],[-74.0779385,40.2012085],[-74.077945,40.2012],[-74.0779548,40.2011905],[-74.0779748,40.201181],[-74.0780035,40.2011744],[-74.0780533,40.2011708],[-74.0780782,40.2011699],[-74.0781056,40.2011729],[-74.0781254,40.2011825],[-74.078165,40.2012113],[-74.0782407,40.2012593],[-74.0782742,40.2012747],[-74.078309,40.2012882],[-74.0783413,40.2012997],[-74.0783636,40.2013151],[-74.0783725,40.2013226],[-74.0783796,40.2013333],[-74.0783862,40.2013456],[-74.0783909,40.2013587],[-74.0783933,40.2013687],[-74.0783918,40.201382],[-74.0783867,40.2013934],[-74.0783754,40.2014125],[-74.0783691,40.2014258],[-74.0783602,40.201462],[-74.0783577,40.2014877],[-74.0783512,40.2015088],[-74.0783449,40.2015192],[-74.0783248,40.2015392],[-74.0783011,40.2015592],[-74.078286,40.201581],[-74.0782794,40.2015967],[-74.0782759,40.2016106],[-74.0782782,40.2016307],[-74.0782867,40.2016612],[-74.0782953,40.2016803],[-74.0783089,40.20169],[-74.0783192,40.2016949],[-74.0783313,40.2016957],[-74.07835,40.2016948],[-74.0783724,40.2016873],[-74.0783974,40.2016759],[-74.0784174,40.2016684],[-74.0784398,40.2016599],[-74.0784672,40.2016571],[-74.0784934,40.2016591],[-74.0785195,40.2016659],[-74.078543,40.2016803],[-74.0785653,40.2017014],[-74.0785888,40.2017234],[-74.0786063,40.2017469],[-74.0786184,40.2017684],[-74.0786281,40.2018066],[-74.0786328,40.2018619],[-74.0786274,40.2019249],[-74.0786245,40.2019822],[-74.0786119,40.2020088],[-74.0785993,40.2020374],[-74.0785971,40.2020543],[-74.0785978,40.202073],[-74.078605,40.2020939],[-74.078613,40.2021099],[-74.0786226,40.2021218],[-74.0786388,40.2021298],[-74.0786477,40.2021315],[-74.0786632,40.2021305],[-74.0786802,40.2021249],[-74.0786966,40.2021164],[-74.0787099,40.2021045],[-74.0787248,40.2020836],[-74.078739,40.2020605],[-74.0787445,40.2020534],[-74.0787539,40.2020475],[-74.0787732,40.2020441],[-74.0787924,40.2020419],[-74.078819,40.2020432],[-74.0788603,40.2020501],[-74.078912,40.2020673],[-74.0789754,40.2020902],[-74.0789887,40.2020984],[-74.0789975,40.2021084],[-74.0790298,40.2021414],[-74.0790902,40.2021825],[-74.0791285,40.2021962],[-74.0791772,40.2022168],[-74.0792184,40.2022385],[-74.0792656,40.2022647],[-74.0792985,40.2022864],[-74.079321,40.2023045],[-74.0793392,40.2023206],[-74.0793508,40.2023331],[-74.0793583,40.2023455],[-74.0793636,40.2023561],[-74.07937,40.2023671],[-74.0793829,40.202381],[-74.0793935,40.2023922],[-74.079417,40.2024081],[-74.0794406,40.202415],[-74.079462,40.2024161],[-74.079483,40.2024149],[-74.0795013,40.2024118],[-74.0795339,40.2023995],[-74.0795769,40.2023758],[-74.0796095,40.2023567],[-74.0796259,40.2023503],[-74.0796406,40.2023477],[-74.0796656,40.2023473],[-74.079685,40.2023501],[-74.0797077,40.2023543],[-74.0797322,40.2023651],[-74.0797928,40.2023777],[-74.07982,40.2023832],[-74.0798489,40.2023847],[-74.0798638,40.2023834],[-74.0798785,40.2023803],[-74.0798938,40.2023729],[-74.0799111,40.2023691],[-74.0799311,40.2023675],[-74.0799496,40.2023692],[-74.0799731,40.2023784],[-74.0799924,40.2023975],[-74.0800084,40.2024193],[-74.080018,40.202438],[-74.0800229,40.2024557],[-74.0800251,40.2024777],[-74.0800226,40.202501],[-74.0800076,40.2025395],[-74.079993,40.202567],[-74.0799896,40.2025803],[-74.0799888,40.2025955],[-74.0799953,40.2026211],[-74.0800038,40.2026778],[-74.0800156,40.2027086],[-74.0800268,40.2027335],[-74.0800299,40.2027416],[-74.0800389,40.2027505],[-74.0800525,40.2027566],[-74.0800654,40.2027597],[-74.0800857,40.202761],[-74.0801039,40.2027598],[-74.0801238,40.2027512],[-74.0801394,40.2027418],[-74.0801547,40.2027271],[-74.0801633,40.2027124],[-74.0801754,40.2026694],[-74.0801786,40.2026614],[-74.0801843,40.2026558],[-74.0802021,40.2026503],[-74.0802258,40.2026469],[-74.0802475,40.2026436],[-74.0802702,40.2026448],[-74.0802936,40.20265],[-74.0803115,40.2026585],[-74.0803283,40.20267],[-74.0803644,40.2027063],[-74.0804026,40.2027518],[-74.0804202,40.2027678],[-74.0804673,40.2028019],[-74.0805381,40.2028385],[-74.0805823,40.2028568],[-74.0806266,40.2028705],[-74.0806544,40.2028736],[-74.0806798,40.202873],[-74.080752,40.2028654],[-74.0808426,40.2028583],[-74.0809081,40.2028564],[-74.0809471,40.2028555],[-74.0809805,40.2028556],[-74.081017,40.2028629],[-74.0810543,40.2028729],[-74.0811057,40.2028966],[-74.0811362,40.2029181],[-74.0811653,40.2029385],[-74.081175,40.2029513],[-74.0811791,40.2029652],[-74.0811845,40.202992],[-74.0811997,40.203007],[-74.0812261,40.2030199],[-74.0812623,40.2030254],[-74.0812972,40.2030245],[-74.0813501,40.2030204],[-74.0813752,40.2030172],[-74.0814017,40.2030131],[-74.0814407,40.2030089],[-74.081484,40.203007],[-74.0815257,40.2030146],[-74.0815605,40.2030286],[-74.0815938,40.203048],[-74.0816323,40.2030737],[-74.0816576,40.2030911],[-74.0816914,40.203114],[-74.0817225,40.2031391],[-74.0817407,40.203163],[-74.0817547,40.2031935],[-74.0817644,40.2032261],[-74.0817671,40.2032511],[-74.0817597,40.2032944],[-74.0817425,40.2033345],[-74.0817239,40.2033735],[-74.0817081,40.2033974],[-74.0816838,40.2034288],[-74.0816667,40.2034558],[-74.0816624,40.2034764],[-74.0816665,40.2034949],[-74.081686,40.2035449],[-74.0816915,40.2035677],[-74.08169,40.2035873],[-74.0816828,40.2036057],[-74.0816813,40.2036176],[-74.0816939,40.2036404],[-74.0817178,40.2036601],[-74.0817545,40.203683],[-74.0817799,40.2036885],[-74.0818506,40.2036996],[-74.0818719,40.2037019],[-74.0818888,40.2037074],[-74.0818958,40.2037128],[-74.0818986,40.2037258],[-74.0818971,40.2037421],[-74.0818927,40.203766],[-74.0818784,40.2037909],[-74.0818612,40.2038299],[-74.081854,40.2038516],[-74.0818425,40.20387],[-74.0818396,40.2038808],[-74.0818423,40.2039015],[-74.0818335,40.2039492],[-74.0818135,40.203986],[-74.0817878,40.2040218],[-74.0817706,40.2040608],[-74.0817562,40.2040998],[-74.0817404,40.2041323],[-74.0817317,40.2041692],[-74.0817316,40.2041833],[-74.0817343,40.2042017],[-74.0817455,40.2042235],[-74.0817539,40.2042344],[-74.0817652,40.2042453],[-74.0817836,40.2042497],[-74.0818048,40.2042487],[-74.0818459,40.2042456],[-74.0819008,40.2042422],[-74.081969,40.2042514],[-74.0820015,40.2042581],[-74.0820312,40.2042571],[-74.0820568,40.2042496],[-74.0820823,40.204241],[-74.0821178,40.2042248],[-74.0821646,40.2042011],[-74.0822002,40.2041817],[-74.0822513,40.2041515],[-74.0822897,40.2041299],[-74.0823237,40.2041159],[-74.0823578,40.2040976],[-74.0823833,40.2040879],[-74.0824117,40.2040794],[-74.0824287,40.2040773],[-74.0824698,40.2040741],[-74.0825264,40.2040776],[-74.0825801,40.2040854],[-74.0826239,40.2040964],[-74.0826762,40.2041129],[-74.08272,40.2041315],[-74.0827453,40.20415],[-74.0827721,40.2041729],[-74.0827874,40.2042077],[-74.0827873,40.2042272],[-74.0827857,40.2042565],[-74.082794,40.2042902],[-74.0828066,40.204312],[-74.0828291,40.2043338],[-74.0828616,40.2043545],[-74.0829139,40.2043645],[-74.0829436,40.2043656],[-74.0829818,40.2043647],[-74.0830158,40.2043583],[-74.0830527,40.204353],[-74.0830754,40.2043477],[-74.0831079,40.2043445],[-74.0831419,40.2043468],[-74.083173,40.204348],[-74.0832028,40.2043492],[-74.0832226,40.204345],[-74.0832467,40.2043374],[-74.0832638,40.2043245],[-74.0832723,40.2043126],[-74.0832767,40.2042995],[-74.0832753,40.2042833],[-74.0832613,40.2042691],[-74.0832457,40.2042636],[-74.0832203,40.2042625],[-74.0831622,40.2042579],[-74.0830887,40.2042511],[-74.0830378,40.2042412],[-74.0830095,40.2042291],[-74.0829771,40.2042149],[-74.0829574,40.2041888],[-74.082942,40.2041681],[-74.0829337,40.2041366],[-74.0829324,40.2041084],[-74.0829355,40.2040747],[-74.0829484,40.2040422],[-74.0829712,40.2040239],[-74.0830038,40.2040077],[-74.0830422,40.203984],[-74.0830592,40.2039786],[-74.0831003,40.2039722],[-74.0831456,40.2039746],[-74.0831909,40.203978],[-74.0832192,40.2039748],[-74.0832405,40.2039651],[-74.0832604,40.2039533],[-74.0832761,40.2039381],[-74.0832974,40.2039143],[-74.083316,40.2038862],[-74.0833319,40.2038396],[-74.0833491,40.203794],[-74.0833592,40.2037593],[-74.0833723,40.2037149],[-74.0833854,40.2036585],[-74.0833998,40.203614],[-74.0834056,40.2035848],[-74.0834101,40.2035479],[-74.0834173,40.2035262],[-74.0834245,40.2035088],[-74.0834387,40.2034904],[-74.0834601,40.203471],[-74.0834857,40.2034494],[-74.0835142,40.2034288],[-74.0835156,40.2034278],[-74.0835511,40.2034051],[-74.0835753,40.2033824],[-74.0836067,40.203338],[-74.0836338,40.2033088],[-74.0836637,40.2032688],[-74.0836766,40.2032503],[-74.0836837,40.2032363],[-74.0836853,40.2032222],[-74.0836811,40.2031994],[-74.0836685,40.2031819],[-74.0836503,40.2031602],[-74.0836489,40.203145],[-74.0836576,40.2031135],[-74.0836804,40.2030876],[-74.0837331,40.2030433],[-74.0837999,40.202999],[-74.0838539,40.2029677],[-74.0839235,40.2029267],[-74.083976,40.2028998],[-74.0840214,40.2028804],[-74.0840598,40.2028621],[-74.0840981,40.2028514],[-74.084132,40.2028482],[-74.0841575,40.2028505],[-74.0841787,40.2028571],[-74.0841928,40.2028691],[-74.0842109,40.2029028],[-74.0842277,40.2029452],[-74.0842487,40.2029854],[-74.0842683,40.2030235],[-74.0842992,40.203054],[-74.0843358,40.2030867],[-74.0843893,40.2031476],[-74.084403,40.2031677],[-74.0844189,40.2031761],[-74.0844425,40.203186],[-74.0844682,40.2031853],[-74.0845197,40.2031912],[-74.0846012,40.2032021],[-74.0846514,40.2032071],[-74.0846865,40.2032159],[-74.0847328,40.2032324],[-74.0847654,40.203247],[-74.0848055,40.2032616],[-74.0848588,40.203281],[-74.0849114,40.2032995],[-74.084979,40.2033209],[-74.0850355,40.2033327],[-74.0850856,40.2033415],[-74.085226,40.2033892],[-74.0852735,40.2034163],[-74.085306,40.2034386],[-74.0853323,40.203457],[-74.0853435,40.2034695],[-74.0853591,40.2034811],[-74.0853741,40.2034879],[-74.0853904,40.2034909],[-74.0854093,40.2034919],[-74.0854206,40.2034862],[-74.0854826,40.2034687],[-74.0855362,40.2034754],[-74.085579,40.203492],[-74.0856025,40.2035102],[-74.0856124,40.2035321],[-74.0856048,40.2035552],[-74.0855719,40.203582],[-74.0855265,40.2036242],[-74.0855113,40.2036492],[-74.085506,40.2036896],[-74.0855159,40.2037166],[-74.0855358,40.2037379],[-74.0855758,40.203765],[-74.0856159,40.2037843],[-74.085666,40.2038018],[-74.0856811,40.2038038],[-74.0857187,40.2038078],[-74.0857514,40.203806],[-74.0857714,40.2038119],[-74.0858039,40.2038389],[-74.0858289,40.2038679],[-74.0858388,40.203893],[-74.0858461,40.2039276],[-74.0858459,40.2039565],[-74.0858395,40.2039854],[-74.0858205,40.2040104],[-74.0857901,40.2040488],[-74.0857761,40.2040757],[-74.0857847,40.2041103],[-74.0857971,40.2041451],[-74.0858063,40.2042151],[-74.085821,40.2042711],[-74.08584,40.2043206],[-74.0858634,40.2043552],[-74.0859,40.2043815],[-74.0859011,40.2043822],[-74.0859311,40.2043959],[-74.0859637,40.2044017],[-74.0859989,40.2044076],[-74.0860215,40.2044039],[-74.0860542,40.2043886],[-74.0860971,40.2043579],[-74.0861451,40.2043119],[-74.0861918,40.2042601],[-74.0862145,40.2042448],[-74.0862397,40.2042333],[-74.086285,40.2042277],[-74.0863252,40.204222],[-74.0863528,40.2042241],[-74.0863929,40.204228],[-74.0864281,40.204232],[-74.0864435,40.2042446],[-74.0864505,40.2042591],[-74.0864554,40.204288],[-74.0864476,40.2043187],[-74.0864349,40.2043495],[-74.086412,40.2043899],[-74.0863968,40.2044225],[-74.0863941,40.2044533],[-74.0864015,40.2044803],[-74.0864289,40.2045151],[-74.0864687,40.2045691],[-74.0864987,40.2045904],[-74.0865338,40.2046059],[-74.0865488,40.2046233],[-74.0865637,40.2046465],[-74.0865634,40.2046869],[-74.086558,40.2047504],[-74.0865544,40.2047859],[-74.0865527,40.2047928],[-74.086548,40.2048023],[-74.08654,40.2048158],[-74.0865361,40.2048255],[-74.0865349,40.204837],[-74.0865434,40.2048944],[-74.0865543,40.2049449],[-74.0865615,40.2049545],[-74.0865693,40.2049623],[-74.086578,40.2049674],[-74.086585,40.2049699],[-74.0866019,40.2049739],[-74.0866973,40.2049762],[-74.0867475,40.2049725],[-74.0867802,40.204965],[-74.0868037,40.2049541],[-74.0868205,40.204942],[-74.0868382,40.2049247],[-74.086851,40.2048921],[-74.0868562,40.204867],[-74.0868614,40.2048266],[-74.0868699,40.2048125],[-74.0868784,40.2048024],[-74.0868869,40.2047967],[-74.0868982,40.2047931],[-74.0869119,40.2047921],[-74.0869245,40.2047939],[-74.0869369,40.204798],[-74.0869488,40.2048055],[-74.086961,40.2048149],[-74.0869731,40.2048272],[-74.0869819,40.2048405],[-74.086987,40.2048618],[-74.0869917,40.2048733],[-74.087001,40.2048806],[-74.087013,40.2048888],[-74.0870272,40.2048951],[-74.0870481,40.2048985],[-74.0870757,40.2048986],[-74.0870991,40.2048954],[-74.0871209,40.2048911],[-74.0871738,40.2048739],[-74.0872417,40.2048491],[-74.0873047,40.2048205],[-74.0873701,40.2047957],[-74.0874255,40.2047728],[-74.0874474,40.2047627],[-74.0874683,40.2047556],[-74.0874929,40.2047533],[-74.0875135,40.2047539],[-74.0875274,40.2047555],[-74.0875411,40.2047597],[-74.0875572,40.2047741],[-74.087566,40.2047887],[-74.0875732,40.2048089],[-74.0875783,40.2048311],[-74.087583,40.2048908],[-74.0875896,40.2050429],[-74.0875867,40.2051103],[-74.0875815,40.2051373],[-74.0875612,40.205168],[-74.087551,40.2051911],[-74.0875533,40.2052334],[-74.0875654,40.2053105],[-74.0875778,40.2053356],[-74.0876053,40.2053511],[-74.0876354,40.2053569],[-74.0876385,40.2053569],[-74.087663,40.205357],[-74.0876983,40.2053475],[-74.0877235,40.2053303],[-74.0877462,40.2053073],[-74.0877628,40.2052534],[-74.0877806,40.2052323],[-74.0878083,40.2052112],[-74.087836,40.205194],[-74.0878637,40.2051825],[-74.0878785,40.2051826],[-74.0879039,40.2051827],[-74.0879742,40.2051945],[-74.0880142,40.205212],[-74.0880493,40.2052217],[-74.0880744,40.2052199],[-74.0881021,40.2052103],[-74.0881274,40.2051912],[-74.0881602,40.2051586],[-74.0881969,40.2051106],[-74.0882323,40.2050722],[-74.0882601,40.2050472],[-74.0882978,40.205032],[-74.0883356,40.2050129],[-74.0883834,40.2049938],[-74.0883867,40.2049936],[-74.0884387,40.2049901],[-74.0884763,40.204996],[-74.0885293,40.2050216],[-74.0885764,40.2050638],[-74.0886112,40.2051082],[-74.0886672,40.2051912],[-74.0887097,40.2052356],[-74.0887447,40.205255],[-74.0887948,40.2052821],[-74.0888524,40.2053112],[-74.0889099,40.2053519],[-74.0889574,40.2053828],[-74.0889801,40.2053967],[-74.0890175,40.2054196],[-74.08907,40.2054391],[-74.0891202,40.2054488],[-74.0891554,40.2054528],[-74.0891956,40.2054453],[-74.0892359,40.2054339],[-74.0892912,40.2054206],[-74.0893364,40.2054109],[-74.089344,40.2054092],[-74.0893992,40.2054075],[-74.089457,40.2054058],[-74.0895248,40.2054022],[-74.0895977,40.2053947],[-74.0896756,40.2053892],[-74.0897309,40.2053817],[-74.0897686,40.2053665],[-74.0897989,40.2053415],[-74.0898393,40.205307],[-74.0898596,40.2052743],[-74.0898648,40.2052436],[-74.089845,40.2051915],[-74.0898251,40.2051645],[-74.0898102,40.2051279],[-74.0898129,40.2051028],[-74.0898282,40.205074],[-74.0898634,40.2050548],[-74.0899263,40.2050358],[-74.0899753,40.2050283],[-74.0900607,40.2050267],[-74.0901562,40.2050251],[-74.0902289,40.205035],[-74.0903042,40.2050526],[-74.0903743,40.2050836],[-74.0904519,40.2051243],[-74.0905195,40.2051612],[-74.0905746,40.2051787],[-74.0906698,40.2052156],[-74.090745,40.2052467],[-74.0908151,40.205272],[-74.0908751,40.2053126],[-74.0909151,40.2053397],[-74.0909585,40.2053708],[-74.0910492,40.205396],[-74.0910944,40.2053981],[-74.0911678,40.205397],[-74.0913604,40.2054183],[-74.0915096,40.2054419],[-74.0917758,40.2054621],[-74.0919954,40.2054744],[-74.0921402,40.2054901],[-74.0922211,40.2055272],[-74.0922987,40.2055795],[-74.0923387,40.2056104],[-74.0923737,40.2056356],[-74.0923924,40.2056459],[-74.0924262,40.2056646],[-74.0924813,40.2056899],[-74.0925639,40.2057364],[-74.0927457,40.2058439],[-74.092831,40.2058947],[-74.0929316,40.2059539],[-74.0930104,40.2059946],[-74.0930893,40.2060286],[-74.0931725,40.2060625],[-74.0932777,40.2060949],[-74.0933862,40.2061306],[-74.0935242,40.2061816],[-74.0936469,40.2062208],[-74.0937346,40.2062396],[-74.0938224,40.2062584],[-74.0938925,40.2062755],[-74.0940131,40.2062978],[-74.094102,40.2063049],[-74.094192,40.2063119],[-74.0942578,40.2063189],[-74.0943687,40.2063226],[-74.0944697,40.2063246],[-74.0945794,40.2063284],[-74.0945861,40.2063294],[-74.0945979,40.2063311],[-74.0945475,40.2066488],[-74.0944667,40.2071672],[-74.0944358,40.2073657],[-74.0943851,40.2076907],[-74.0943639,40.207827],[-74.0943097,40.2081744],[-74.0942623,40.2084784],[-74.0942302,40.2086842],[-74.0941982,40.2088896],[-74.0941502,40.2091973],[-74.0941023,40.2095045],[-74.0940695,40.2097154],[-74.0940109,40.210091],[-74.0939889,40.2102319],[-74.0939443,40.2105134],[-74.0939443,40.2105136],[-74.093858,40.2110582],[-74.0938089,40.2113678],[-74.0938011,40.2114277],[-74.0937358,40.211927],[-74.0935712,40.2130509],[-74.0934374,40.2139648],[-74.0934342,40.2139865],[-74.0933203,40.2147639],[-74.0929927,40.2169353],[-74.0928857,40.2176451],[-74.0928503,40.2178691],[-74.0926892,40.2189352],[-74.0926109,40.2194535],[-74.0924405,40.2205809],[-74.0923441,40.221047],[-74.0922165,40.2217174],[-74.0920175,40.2227625],[-74.0919432,40.2234916],[-74.091935,40.2235724],[-74.0918244,40.2246582],[-74.0916988,40.2254889],[-74.0916824,40.2255974],[-74.0916245,40.2255608],[-74.091265,40.2253334],[-74.0909304,40.2251273],[-74.090695,40.224993],[-74.0904162,40.2248205],[-74.0901373,40.2246765],[-74.0899141,40.2245613],[-74.0896846,40.22447],[-74.0896742,40.2244661],[-74.0894967,40.2245104],[-74.0888668,40.2246677],[-74.0882726,40.2245976],[-74.0881832,40.2246008],[-74.0879489,40.2246093],[-74.0873974,40.2248375],[-74.0873803,40.2248446],[-74.086882,40.2250508],[-74.0867479,40.2251063],[-74.0864704,40.2253477],[-74.0864665,40.2253511],[-74.0862964,40.2254877],[-74.0861683,40.2255906],[-74.0859228,40.2257877],[-74.0852418,40.2263333],[-74.0849355,40.2265943],[-74.0845795,40.22686],[-74.0842611,40.2270733],[-74.0840051,40.2272344],[-74.083818,40.2273338],[-74.0836122,40.2274237],[-74.0833942,40.2274991],[-74.0830453,40.2276075],[-74.0825157,40.2277772],[-74.0820048,40.2279469],[-74.0817492,40.2280461],[-74.0815557,40.2281598],[-74.0814496,40.2282309],[-74.081312,40.2283638],[-74.0812117,40.2284969],[-74.0811425,40.2286253],[-74.081092,40.2287491],[-74.0809646,40.2292348],[-74.080824,40.2298586],[-74.0807541,40.2301014],[-74.0806719,40.2303203],[-74.0805647,40.2305535],[-74.0804578,40.2307533],[-74.0803762,40.2308721],[-74.0802512,40.2309813],[-74.0800951,40.2310904],[-74.0799142,40.2311755],[-74.0794403,40.2313882],[-74.078985,40.2316058],[-74.0786541,40.2318191],[-74.0781983,40.2321129],[-74.078036,40.2322219],[-74.0779234,40.2323264],[-74.07784,40.2324231],[-74.0777566,40.2325677],[-74.0776747,40.2327342],[-74.0776363,40.2329057],[-74.0776042,40.2330819],[-74.0775345,40.2335824],[-74.0775325,40.2335964],[-74.077442,40.2341632],[-74.077422,40.2343934],[-74.0769871,40.2342696],[-74.076366,40.2341386],[-74.075938,40.2340398],[-74.0753087,40.2338945],[-74.0750868,40.2338432],[-74.0734535,40.2334941],[-74.0724882,40.233291],[-74.0710315,40.2329847],[-74.0701251,40.2327903],[-74.0690605,40.2325619],[-74.0684174,40.232424],[-74.068386,40.2324172],[-74.0677033,40.2322732],[-74.0664546,40.2320097],[-74.0645109,40.2315925],[-74.062325,40.2311267],[-74.0608808,40.2308246],[-74.0608584,40.2308202],[-74.059099,40.2304452],[-74.0547316,40.2294787],[-74.0526511,40.2290074],[-74.0511175,40.2287058],[-74.0343356,40.22515],[-74.0328151,40.224828],[-74.0318158,40.2246163]]]}}
